{"type": "FeatureCollection", "features": [{"type": "Feature", "geometry": {"type": "Polygon", "coordinates": [[[-74.03877287553384, 4.620016827804231], [-74.03820727950944, 4.6194009340631865], [-74.038026276788, 4.619598635753778], [-74.03777501182864, 4.619431019103042], [-74.0374431901638, 4.619212527750729], [-74.03708268391541, 4.618986740027091], [-74.03686480101499, 4.618873196488526], [-74.03682802078228, 4.618837814083033], [-74.03678444420218, 4.6187656499679335], [-74.03662762848174, 4.618453005436619], [-74.03633138769428, 4.617903878503065], [-74.03597078149951, 4.617217219964382], [-74.03557939184908, 4.61648908205741], [-74.03524697050658, 4.615865092362904], [-74.03492804191252, 4.61527998333666], [-74.03460091772317, 4.614642700260169], [-74.03425380427677, 4.614025407246178], [-74.03389049953238, 4.613350742767677], [-74.03362574182455, 4.612854889366298], [-74.03353529043699, 4.612685373670646], [-74.03317478418853, 4.61200531188492], [-74.03299438114495, 4.611660183528836], [-74.03285975349962, 4.611402711579013], [-74.03247246164683, 4.610687967050755], [-74.0321467367054, 4.610069374705968], [-74.03180621971389, 4.609440087683827], [-74.03147519761939, 4.608816197981011], [-74.03099955325109, 4.6079675200845], [-74.0292012197528, 4.604586901556351], [-74.02702758795587, 4.6004403641322815], [-74.0267637297646, 4.600022272109129], [-74.02630257760758, 4.6002626525334245], [-74.02579125241571, 4.6005820936303445], [-74.02523035386662, 4.600962504399708], [-74.02472172722447, 4.6013441145737985], [-74.02379382591852, 4.602073651680983], [-74.02288331526599, 4.602826577159391], [-74.02208574391511, 4.6035120362017095], [-74.02086400053254, 4.604544022884279], [-74.01858972282706, 4.606500449771317], [-74.01580262073541, 4.609159927023806], [-74.01489460874012, 4.609940039031154], [-74.01431851835578, 4.610442888939256], [-74.01338801844638, 4.6112490879819115], [-74.01253157873387, 4.6120392949840445], [-74.01236206983523, 4.612195717190459], [-74.0128061311776, 4.612566532773328], [-74.01323849880468, 4.61331396105994], [-74.013631987327, 4.614036101927565], [-74.01381159080042, 4.614244498289595], [-74.01424215939443, 4.614731456121284], [-74.01481555122893, 4.615375835669229], [-74.01552097210545, 4.616137656818151], [-74.0164825553094, 4.617188334328718], [-74.0167590067325, 4.61690687429443], [-74.01744893593495, 4.6161989263492575], [-74.01985314381035, 4.614076181995248], [-74.02065211440923, 4.613348743761822], [-74.02118882595732, 4.612892370725928], [-74.02151615003936, 4.612627302550912], [-74.02210113564296, 4.612157336278441], [-74.02253950004707, 4.61182740036614], [-74.02291469839942, 4.611567729509521], [-74.02327870276777, 4.612064082656356], [-74.02380012253442, 4.612778927144156], [-74.02421699848738, 4.6133426467939636], [-74.0248080808143, 4.614142948791315], [-74.02542464944392, 4.614980632204747], [-74.02588440235292, 4.615605921247873], [-74.02628118910263, 4.6161470521459185], [-74.02675973191324, 4.61678563458529], [-74.02728375028323, 4.6174870857651], [-74.02777298734618, 4.6181537542460545], [-74.02823014165183, 4.618781642015592], [-74.02879034057688, 4.61953386796026], [-74.0293184567446, 4.620248612548007], [-74.02980769380756, 4.620913981692403], [-74.03027014526629, 4.621545967440584], [-74.03101004761093, 4.622541272537624], [-74.03155025727911, 4.6232788058144845], [-74.03214263890776, 4.624103095959352], [-74.03267615217484, 4.624801848529249], [-74.03310372238025, 4.625366967547102], [-74.03340536026707, 4.6257771635959], [-74.0335607767396, 4.6256649194040325], [-74.0336667198012, 4.625529986493204], [-74.03394147213751, 4.625280110732887], [-74.03423801276385, 4.625050424934509], [-74.03442401279948, 4.624922088744525], [-74.0346922686272, 4.624761968358155], [-74.03480470819738, 4.624694901704507], [-74.0353783998708, 4.624390353130292], [-74.03574560252034, 4.624176559432003], [-74.03605843439107, 4.623953470355998], [-74.03624153598437, 4.623775758717842], [-74.03641854085436, 4.623527282265877], [-74.03659004867869, 4.6232199350865475], [-74.03671877949327, 4.622867310421405], [-74.0368822916148, 4.622576055242533], [-74.03696004982416, 4.622487799126378], [-74.03716224115787, 4.622164060100677], [-74.03727008319896, 4.621991545881147], [-74.03754713429983, 4.6215552628185295], [-74.03785536864143, 4.621122378067906], [-74.03819048853359, 4.620660107930947], [-74.03848313125486, 4.6202973882940706], [-74.03856308828249, 4.620236618512097], [-74.03864584380615, 4.620145363888896], [-74.03868762135305, 4.620103084912355], [-74.03877287553384, 4.620016827804231], [-74.03877287553384, 4.620016827804231]]]}, "properties": {"layer": "upz"}}, {"type": "Feature", "geometry": {"type": "Polygon", "coordinates": [[[-74.03340536026707, 4.6257771635959], [-74.03310372238025, 4.625366967547102], [-74.03267615217484, 4.624801848529249], [-74.03214263890776, 4.624103095959352], [-74.03155025727911, 4.6232788058144845], [-74.03101004761093, 4.622541272537624], [-74.03027014526629, 4.621545967440584], [-74.02980769380756, 4.620913981692403], [-74.0293184567446, 4.620248612548007], [-74.02879034057688, 4.61953386796026], [-74.02823014165183, 4.618781642015592], [-74.02777298734618, 4.6181537542460545], [-74.02728375028323, 4.6174870857651], [-74.02675973191324, 4.61678563458529], [-74.02628118910263, 4.6161470521459185], [-74.02588440235292, 4.615605921247873], [-74.02542464944392, 4.614980632204747], [-74.0248080808143, 4.614142948791315], [-74.02421699848738, 4.6133426467939636], [-74.02380012253442, 4.612778927144156], [-74.02327870276777, 4.612064082656356], [-74.02291469839942, 4.611567729509521], [-74.02253950004707, 4.61182740036614], [-74.02210113564296, 4.612157336278441], [-74.02151615003936, 4.612627302550912], [-74.02118882595732, 4.612892370725928], [-74.02065211440923, 4.613348743761822], [-74.01985314381035, 4.614076181995248], [-74.01744893593495, 4.6161989263492575], [-74.0167590067325, 4.61690687429443], [-74.0164825553094, 4.617188334328718], [-74.01552097210545, 4.616137656818151], [-74.01481555122893, 4.615375835669229], [-74.01424215939443, 4.614731456121284], [-74.01381159080042, 4.614244498289595], [-74.013631987327, 4.614036101927565], [-74.01323849880468, 4.61331396105994], [-74.0128061311776, 4.612566532773328], [-74.01236206983523, 4.612195717190459], [-74.01200126374798, 4.612572929592025], [-74.01179617397204, 4.612787322968695], [-74.01030947298896, 4.61403210391584], [-74.00959375764519, 4.614681381023954], [-74.00891012505865, 4.6152932767258585], [-74.00821849676939, 4.615955947181248], [-74.00759653104049, 4.616493080069223], [-74.00678196882127, 4.6172197187218], [-74.00593122604693, 4.618035513044394], [-74.00457665405213, 4.619312078247886], [-74.00392660341727, 4.619891889930479], [-74.00340118579928, 4.620402336108415], [-74.003015093302, 4.620779048787604], [-74.00345045931752, 4.621138470066225], [-74.00443692914632, 4.621980151546838], [-74.00553873698745, 4.622963462611733], [-74.00664324337822, 4.62400284580557], [-74.00708820423722, 4.624430433201868], [-74.00783350368124, 4.62517326385794], [-74.00869663979483, 4.62604962812626], [-74.0096322369647, 4.627024943204361], [-74.01053735051778, 4.6279797684785775], [-74.01131703148376, 4.627163574278404], [-74.01478076992191, 4.62361673778653], [-74.01506751581236, 4.624092401276935], [-74.01526590918722, 4.624413041849114], [-74.01542402420948, 4.624307494328984], [-74.01581811240955, 4.624095099935116], [-74.01615663047538, 4.623920086954886], [-74.01639180408294, 4.6237911510644345], [-74.01695410187996, 4.623470510494139], [-74.0175606758811, 4.623149170272688], [-74.01816245246046, 4.6228485197646885], [-74.0185538421109, 4.622610737997138], [-74.0188768685026, 4.622400942314504], [-74.01923747469736, 4.622189947228657], [-74.01972131466096, 4.621952065512278], [-74.02013948991562, 4.621722279770808], [-74.0204933997093, 4.621519180760051], [-74.02103890653055, 4.622115084453151], [-74.02159520755043, 4.622706990137529], [-74.02189414688763, 4.623011538706923], [-74.02203886910762, 4.623177256307566], [-74.0220844446134, 4.623268111132156], [-74.0222077783286, 4.623682205234651], [-74.02225865098745, 4.62381583878919], [-74.02245974291203, 4.6240242351703795], [-74.02296377202508, 4.624510593345085], [-74.02352936804947, 4.625095702422142], [-74.02404409141504, 4.625654224721463], [-74.02447296092215, 4.626071017491489], [-74.02564453126993, 4.627730392464022], [-74.02568470967634, 4.627758478500108], [-74.02568470967634, 4.627786464585878], [-74.02570210032985, 4.62783194197529], [-74.0257690643405, 4.62785822890589], [-74.0258026462921, 4.62783194197529], [-74.02584692249624, 4.627835939987536], [-74.02595676346291, 4.6279067048044995], [-74.02611897628282, 4.628040338364368], [-74.0261994330419, 4.628132492547095], [-74.02638973076776, 4.628294212143457], [-74.02650237023046, 4.628371673631292], [-74.02662030684623, 4.628435741778046], [-74.02686287647892, 4.628553383289429], [-74.02707736120557, 4.628638441000803], [-74.02721948482223, 4.628672224204635], [-74.02747944510844, 4.628712304277828], [-74.02767653918158, 4.628744388326452], [-74.02786413835771, 4.628735092947884], [-74.02802705080157, 4.62867812127275], [-74.02817786974498, 4.6285827686797205], [-74.02836546892121, 4.628438440436328], [-74.02841104442687, 4.628363677606737], [-74.02859064790029, 4.6282193493636505], [-74.02911606551831, 4.627842636658077], [-74.0296495787854, 4.627444434638026], [-74.02994711887457, 4.627206652860208], [-74.0301590049978, 4.62701414857136], [-74.03038808188205, 4.626807151488572], [-74.03047523504222, 4.6266843125632455], [-74.03058917380662, 4.626475816226521], [-74.03069771547167, 4.626318194595432], [-74.03075958222182, 4.626257924561535], [-74.03085193258877, 4.626199253732567], [-74.03089610884653, 4.626157874306353], [-74.0311440755786, 4.626037634089689], [-74.03117495898057, 4.625998853371478], [-74.0313625581567, 4.625912096507034], [-74.03154366082433, 4.625975065198959], [-74.03170977154929, 4.626048328772311], [-74.03188267862163, 4.62613248692893], [-74.03208906769927, 4.626184561037739], [-74.03222709351819, 4.626218044389894], [-74.0323491279317, 4.626234036438659], [-74.03251963629319, 4.626237934500562], [-74.03266136012468, 4.6262099484151875], [-74.03281018014242, 4.6261498782819634], [-74.03297509151196, 4.626047029418347], [-74.03311441663267, 4.6259494779209644], [-74.03325923879898, 4.62586392046023], [-74.03340536026707, 4.6257771635959], [-74.03340536026707, 4.6257771635959]]]}, "properties": {"layer": "upz"}}, {"type": "Feature", "geometry": {"type": "Polygon", "coordinates": [[[-74.0267637297646, 4.600022272109129], [-74.0257464764802, 4.598497730495237], [-74.02542305030332, 4.597607873166541], [-74.02507983476208, 4.596799875122339], [-74.02502296532622, 4.596679235137789], [-74.02491732210339, 4.596525811462517], [-74.02478389381349, 4.596397975058345], [-74.02458230215754, 4.596252547405618], [-74.02408906724314, 4.595867838791237], [-74.02387888020662, 4.595709617503888], [-74.02374165395796, 4.595564289802357], [-74.02331408375257, 4.59484624702149], [-74.0223510013544, 4.593221555307349], [-74.02202407705755, 4.592659135117761], [-74.0212406980791, 4.592998466296292], [-74.02095515154406, 4.593116707470103], [-74.02069649055956, 4.5932543389971805], [-74.02038385858141, 4.593434749241725], [-74.01991800894902, 4.593718308169631], [-74.01945595727547, 4.593983876048883], [-74.0192481689498, 4.594104116229275], [-74.01857393131405, 4.594501618472489], [-74.01829378187838, 4.594681928768879], [-74.01814636110866, 4.594790174917013], [-74.01802972379453, 4.5949051177337275], [-74.01785681672227, 4.595082729373349], [-74.01716658768103, 4.595824260470745], [-74.01689183534472, 4.5961142162227295], [-74.01674161607899, 4.596277235123973], [-74.01638400827274, 4.596703523055128], [-74.01564470560584, 4.597512820452224], [-74.01522573078081, 4.597948603664772], [-74.01472170166778, 4.598495131787985], [-74.014472435634, 4.598767696198679], [-74.01413731574185, 4.599139111436406], [-74.01396570797124, 4.5993194217406455], [-74.01366686858033, 4.599637463530817], [-74.01337192709458, 4.599978094085256], [-74.01316154016557, 4.600203981718794], [-74.01302881149964, 4.600344211962335], [-74.01281432677298, 4.600580694326407], [-74.01248860183155, 4.600934718221546], [-74.01210390858219, 4.6013543095025025], [-74.01186673604894, 4.601636169296739], [-74.01165355062392, 4.6018833463438655], [-74.01134261773258, 4.602225376209468], [-74.01114962145708, 4.602437870509915], [-74.01107456179734, 4.602755812359119], [-74.01104237909375, 4.602994993386194], [-74.01103828129611, 4.603212785053205], [-74.01108255750015, 4.603441871102682], [-74.01110264670339, 4.603537423573738], [-74.01121728509176, 4.6039202331604825], [-74.01133452208357, 4.604294946775572], [-74.0114464619223, 4.604694448062579], [-74.01147794500194, 4.604857466976965], [-74.01148204279959, 4.605028082113273], [-74.01145985472438, 4.60520819252694], [-74.0114176773923, 4.605349122429078], [-74.01133522170753, 4.605515439703893], [-74.01117710668537, 4.605726534706916], [-74.01109794922799, 4.605809393493733], [-74.01085198142161, 4.6060625675677125], [-74.0105772290854, 4.606339829661271], [-74.01025690124332, 4.6066630688873325], [-74.00999684101082, 4.606937632324708], [-74.0095839629093, 4.607350526960125], [-74.00992987700018, 4.607703251524073], [-74.01008669272062, 4.607915645885181], [-74.01020063148513, 4.608112048200666], [-74.0104164155135, 4.608500854821159], [-74.01073134625621, 4.609087363114128], [-74.01096322163637, 4.609538938519817], [-74.01115631785817, 4.609884966421609], [-74.01131043502897, 4.610158930165564], [-74.01148733995265, 4.610408705940043], [-74.01236206983523, 4.612195717190459], [-74.01253157873387, 4.6120392949840445], [-74.01338801844638, 4.6112490879819115], [-74.01431851835578, 4.610442888939256], [-74.01489460874012, 4.609940039031154], [-74.01580262073541, 4.609159927023806], [-74.01858972282706, 4.606500449771317], [-74.02086400053254, 4.604544022884279], [-74.02208574391511, 4.6035120362017095], [-74.02288331526599, 4.602826577159391], [-74.02379382591852, 4.602073651680983], [-74.02472172722447, 4.6013441145737985], [-74.02523035386662, 4.600962504399708], [-74.02579125241571, 4.6005820936303445], [-74.02630257760758, 4.6002626525334245], [-74.0267637297646, 4.600022272109129], [-74.0267637297646, 4.600022272109129]]]}, "properties": {"layer": "upz"}}, {"type": "Feature", "geometry": {"type": "Polygon", "coordinates": [[[-74.02564453126993, 4.627730392464022], [-74.02447296092215, 4.626071017491489], [-74.02404409141504, 4.625654224721463], [-74.02352936804947, 4.625095702422142], [-74.02296377202508, 4.624510593345085], [-74.02245974291203, 4.6240242351703795], [-74.02225865098745, 4.62381583878919], [-74.0222077783286, 4.623682205234651], [-74.0220844446134, 4.623268111132156], [-74.02203886910762, 4.623177256307566], [-74.02189414688763, 4.623011538706923], [-74.02159520755043, 4.622706990137529], [-74.02103890653055, 4.622115084453151], [-74.0204933997093, 4.621519180760051], [-74.02013948991562, 4.621722279770808], [-74.01972131466096, 4.621952065512278], [-74.01923747469736, 4.622189947228657], [-74.0188768685026, 4.622400942314504], [-74.0185538421109, 4.622610737997138], [-74.01816245246046, 4.6228485197646885], [-74.0175606758811, 4.623149170272688], [-74.01695410187996, 4.623470510494139], [-74.01639180408294, 4.6237911510644345], [-74.01615663047538, 4.623920086954886], [-74.01581811240955, 4.624095099935116], [-74.01542402420948, 4.624307494328984], [-74.01526590918722, 4.624413041849114], [-74.01506751581236, 4.624092401276935], [-74.01478076992191, 4.62361673778653], [-74.01131703148376, 4.627163574278404], [-74.01053735051778, 4.6279797684785775], [-74.0096322369647, 4.627024943204361], [-74.00869663979483, 4.62604962812626], [-74.00783350368124, 4.62517326385794], [-74.00708820423722, 4.624430433201868], [-74.00664324337822, 4.62400284580557], [-74.00553873698745, 4.622963462611733], [-74.00443692914632, 4.621980151546838], [-74.00345045931752, 4.621138470066225], [-74.003015093302, 4.620779048787604], [-74.00278151883494, 4.621035621207456], [-74.00238882988278, 4.621445717289232], [-74.00187810436866, 4.621952465313497], [-74.00090902519337, 4.622881303463654], [-74.00028576016285, 4.623468511488093], [-73.99959812972494, 4.624155170067182], [-73.99907271210695, 4.624649524266735], [-73.99871480446191, 4.625042328959903], [-73.99846953627957, 4.625281410086838], [-73.99831811765841, 4.625412344985179], [-73.9981478091895, 4.625541980529723], [-73.99779669789184, 4.625823840388106], [-73.9975420347587, 4.626051027430529], [-73.99728597237764, 4.626298204534433], [-73.99704200349701, 4.626546680992874], [-73.99635177445576, 4.627059725910747], [-73.99612389692686, 4.627228042225653], [-73.99590671365056, 4.6274230452725424], [-73.99567623751831, 4.6276074535873075], [-73.99498191067933, 4.628117799852013], [-73.99469366559465, 4.628350284265618], [-73.99438802985638, 4.628609455411717], [-73.99421922058178, 4.628743088972464], [-73.99404091641009, 4.628857931875578], [-73.99378675300841, 4.629016952814739], [-73.99356137413672, 4.62915288523307], [-73.99342654659881, 4.629248037925998], [-73.99324654334032, 4.629401261747872], [-73.99313990065465, 4.62953869342131], [-73.99322715376111, 4.629662331952409], [-73.99326183512186, 4.629770977937411], [-73.9932660328658, 4.629902212692201], [-73.99324734291056, 4.630097415644625], [-73.99323734828218, 4.630288520634727], [-73.99325373947276, 4.630358885652087], [-73.99330501191677, 4.630495917525539], [-73.99335498505907, 4.630608261672813], [-73.99352349449488, 4.630772480030677], [-73.99383722588216, 4.631008962462457], [-73.99408109481648, 4.631193270833164], [-73.99433415880902, 4.631387674185464], [-73.99473124539762, 4.631727705139814], [-73.99500060063455, 4.631950794232141], [-73.99512253510177, 4.631880629114348], [-73.99525796231734, 4.631874632095725], [-73.99538669313192, 4.631906716145304], [-73.99562526491319, 4.631978880269335], [-73.9957405029793, 4.63203495239343], [-73.99583435254047, 4.632109815175934], [-73.99589871794777, 4.6322781314988415], [-73.995925503552, 4.63241706243067], [-73.99592010645263, 4.632598772095728], [-73.99595228915632, 4.6328018711276675], [-73.99599516611237, 4.632983580793387], [-73.99587992804624, 4.633090427676169], [-73.99624453209235, 4.633568689917121], [-73.9964590168191, 4.633849250442748], [-73.99664001954044, 4.634080635415443], [-73.99673506845703, 4.634187282398723], [-73.99684211092786, 4.634290930872718], [-73.9969522517334, 4.634376988091809], [-73.99707758437431, 4.634456948341896], [-73.99723769832224, 4.634515919026372], [-73.99740610781167, 4.634574689810263], [-73.99753793696105, 4.634600077189709], [-73.99766536847383, 4.6346094725191165], [-73.99795161463291, 4.634596279077831], [-73.99823896020104, 4.634499327274467], [-73.99856878294011, 4.634262045232424], [-73.99920893889286, 4.633588280178236], [-73.99960062838208, 4.633287729590987], [-73.99983940005592, 4.633183981167642], [-74.00008007070915, 4.633113016446544], [-74.00040749473739, 4.633073636023858], [-74.00072582365377, 4.633092726533334], [-74.00191498454765, 4.633346500374191], [-74.002584524708, 4.633501923108853], [-74.00324626905821, 4.6336485502162805], [-74.00342097516364, 4.633698825223177], [-74.00346115357004, 4.63371031950905], [-74.00364345559309, 4.6338011743426355], [-74.00431849279909, 4.634149001429085], [-74.00517453272641, 4.6346361592526275], [-74.0060249756619, 4.635081937648722], [-74.00677727134587, 4.635505926878317], [-74.0069713670305, 4.6355986807694], [-74.00720883940262, 4.635692933915297], [-74.00741992595569, 4.635750605246381], [-74.00765429999299, 4.635807476974977], [-74.00794544351997, 4.63579168482537], [-74.0081894124006, 4.635727116922626], [-74.00847146081564, 4.6356448578143565], [-74.00883886335778, 4.635524717537286], [-74.0093991622291, 4.635393782626464], [-74.0097882531149, 4.635302228139333], [-74.01010048530797, 4.635207075440959], [-74.01030687438562, 4.635117819811171], [-74.0105097653433, 4.635010273274155], [-74.01081859936258, 4.6348409574437825], [-74.01119699599603, 4.634609872320362], [-74.01138309597785, 4.634459946851284], [-74.01165305089255, 4.63419297956652], [-74.01187802997906, 4.633909820331873], [-74.01219416007717, 4.633514017096569], [-74.01250609243135, 4.633237454584282], [-74.01281292752496, 4.6330072690171535], [-74.01302481364829, 4.6328282580098055], [-74.0132429963875, 4.6327589924442085], [-74.01353014206303, 4.632751096369641], [-74.0138491706034, 4.6327774832517665], [-74.01426714596556, 4.633016764296726], [-74.01457028304662, 4.633248049317309], [-74.01486942227639, 4.633445251282103], [-74.01509170281327, 4.633598175259104], [-74.01522703008254, 4.633688930142296], [-74.01532817572254, 4.633762193720952], [-74.01548838961676, 4.633829260380325], [-74.01559903015378, 4.633892029176322], [-74.01570857128166, 4.633943803438007], [-74.01573265833618, 4.633972888978848], [-74.01587498184541, 4.634010270395615], [-74.0159588367782, 4.634029660756184], [-74.01602590073513, 4.634033658768684], [-74.01608356974134, 4.634020265426839], [-74.0162671710661, 4.634060345502067], [-74.01634223072584, 4.634077736856399], [-74.01639720118231, 4.634103124235717], [-74.01663127538085, 4.63420747236182], [-74.01720546678571, 4.634461146255031], [-74.01741315516499, 4.6345573984061605], [-74.01761154853995, 4.63464425522797], [-74.01782823208487, 4.634704425316308], [-74.01796945618497, 4.6347123213910155], [-74.01810488340054, 4.634713720695398], [-74.01833485980134, 4.634688133415304], [-74.01845739394629, 4.634613470531616], [-74.0185538421109, 4.634514619672307], [-74.01865308877143, 4.634349002004297], [-74.0187307470346, 4.634156597652814], [-74.0187675272673, 4.633930110245236], [-74.01873884268359, 4.633758395609113], [-74.0187227513318, 4.633515316450621], [-74.01872005278216, 4.632654944170458], [-74.01870665997998, 4.632048345735033], [-74.01870536067828, 4.63177578123896], [-74.01871205707936, 4.631615460941649], [-74.01874433972924, 4.631458938756343], [-74.01880180884287, 4.631260137590286], [-74.0188862634534, 4.630983575083876], [-74.01896272236105, 4.63077647804305], [-74.0190310856197, 4.6306642338458905], [-74.01908335752655, 4.630624153771961], [-74.01913562943339, 4.630598766393456], [-74.01912083738323, 4.630565382990257], [-74.01911813883359, 4.63052260425802], [-74.0191468234172, 4.630464832979454], [-74.01936080841249, 4.630279525106933], [-74.01951832375698, 4.630163482798583], [-74.01960737589654, 4.630097815445857], [-74.01972001535924, 4.630032347993779], [-74.01985674187661, 4.6299574852127385], [-74.01997377897584, 4.629933497138731], [-74.02018916321904, 4.629937495151066], [-74.0204049472475, 4.629992267920078], [-74.02056306226967, 4.630063032738479], [-74.02082712035353, 4.630208660338086], [-74.02102911179466, 4.630337496286006], [-74.02115824239432, 4.6304237534025265], [-74.02127218115874, 4.630502614196232], [-74.0213338480163, 4.63058007568567], [-74.02137942352206, 4.630640245771718], [-74.02140351057666, 4.630707012578192], [-74.02148126878603, 4.630849941520318], [-74.02162469170439, 4.631018257841229], [-74.02176481639538, 4.6311454945851995], [-74.0218753569861, 4.631216059503754], [-74.02200128930465, 4.631265434956698], [-74.02211542796167, 4.631276729341683], [-74.02225065528465, 4.6312614369443255], [-74.0223431055979, 4.631203965516294], [-74.02242216310898, 4.631121206659972], [-74.02246064242857, 4.631015859033811], [-74.02246913786276, 4.630928802314342], [-74.02248652851627, 4.630728401944336], [-74.02248382996663, 4.630632149796668], [-74.02251071551716, 4.630618856405573], [-74.02252810617068, 4.630463833476368], [-74.02250661771943, 4.63035698659623], [-74.02249992131843, 4.630262133753225], [-74.02249462416536, 4.629978874578756], [-74.02250661771943, 4.629837244991788], [-74.02253360321633, 4.629705810336451], [-74.02260586438004, 4.629497913695653], [-74.02267152908904, 4.629293515316022], [-74.02275728300121, 4.629030346155948], [-74.02282294771013, 4.62886332919218], [-74.02291679727138, 4.6285827686797205], [-74.0229824619803, 4.628430444411774], [-74.02307631154156, 4.628220648717639], [-74.0231914496614, 4.628043336873565], [-74.0233229789719, 4.627958878864504], [-74.02347309829128, 4.627888014097198], [-74.02368348522037, 4.627814550621964], [-74.02379612468306, 4.6278011572809215], [-74.02402770022437, 4.627735889730865], [-74.02431884375135, 4.627684915074647], [-74.02465566273037, 4.627640037387152], [-74.02496759508456, 4.627622146282326], [-74.02524904382186, 4.627648833014094], [-74.02552919325751, 4.62769560975742], [-74.02564453126993, 4.627730392464022], [-74.02564453126993, 4.627730392464022]]]}, "properties": {"layer": "upz"}}, {"type": "Feature", "geometry": {"type": "Polygon", "coordinates": [[[-74.01236206983523, 4.612195717190459], [-74.01148733995265, 4.610408705940043], [-74.01131043502897, 4.610158930165564], [-74.01115631785817, 4.609884966421609], [-74.01096322163637, 4.609538938519817], [-74.01073134625621, 4.609087363114128], [-74.0104164155135, 4.608500854821159], [-74.01020063148513, 4.608112048200666], [-74.01008669272062, 4.607915645885181], [-74.00992987700018, 4.607703251524073], [-74.0095839629093, 4.607350526960125], [-74.00999684101082, 4.606937632324708], [-74.01025690124332, 4.6066630688873325], [-74.0105772290854, 4.606339829661271], [-74.01085198142161, 4.6060625675677125], [-74.01109794922799, 4.605809393493733], [-74.01117710668537, 4.605726534706916], [-74.01133522170753, 4.605515439703893], [-74.0114176773923, 4.605349122429078], [-74.01145985472438, 4.60520819252694], [-74.01148204279959, 4.605028082113273], [-74.01147794500194, 4.604857466976965], [-74.0114464619223, 4.604694448062579], [-74.01133452208357, 4.604294946775572], [-74.01121728509176, 4.6039202331604825], [-74.01110264670339, 4.603537423573738], [-74.01108255750015, 4.603441871102682], [-74.01028908394693, 4.603393095364365], [-74.00875560810266, 4.603304939214405], [-74.00771286851575, 4.603198092361571], [-74.00575052316447, 4.603080450878253], [-74.00485250579756, 4.60299229472856], [-74.00428850891366, 4.602890445390179], [-74.00387732989896, 4.602980900396299], [-74.00340418418779, 4.60307475371211], [-74.00177036227387, 4.602935023216391], [-74.00028855865878, 4.602797991378485], [-73.99972686053944, 4.602746417032535], [-73.99811032933283, 4.602572803391407], [-73.9948069047351, 4.602220678546195], [-73.99414546022378, 4.602150613398312], [-73.99379734731454, 4.6021098336831505], [-73.99377445961547, 4.602337120625168], [-73.99361194695668, 4.603948918891973], [-73.99344843483514, 4.605498748006225], [-73.99339216507695, 4.605987704803567], [-73.99333319676903, 4.606377910720313], [-73.99325014140658, 4.606848176818101], [-73.9931615889984, 4.607307748237238], [-73.99307853363597, 4.607735335566362], [-73.9930329581302, 4.607975815958379], [-73.99297928697534, 4.608126740892975], [-73.99285195540877, 4.608478166105746], [-73.9926200800286, 4.609138137860844], [-73.99245386935735, 4.609611102628644], [-73.99227426588402, 4.610025296628214], [-73.99197332762115, 4.6106525846479975], [-73.99173005836448, 4.61115563446003], [-73.99146470097891, 4.611625900578963], [-73.99120194219675, 4.61204539195184], [-73.99094468046026, 4.612472879349717], [-73.99078046871477, 4.612732450258271], [-73.99064704042479, 4.612943245424743], [-73.99034680178598, 4.613386824823383], [-73.99003856744434, 4.61380091888738], [-73.98958551093635, 4.614385728054581], [-73.98954793113339, 4.614434203947071], [-73.98909757317512, 4.61499532489801], [-73.9885882469089, 4.615607320552001], [-73.98816197600523, 4.616109670735436], [-73.98789931716938, 4.616398227238609], [-73.9875535030247, 4.616729562469236], [-73.98668756841519, 4.617573942572953], [-73.98619963065386, 4.618006827309112], [-73.9857680625971, 4.618383539979814], [-73.9853873671992, 4.618725569898494], [-73.984950402043, 4.619075595842136], [-73.98464606560644, 4.61932906979862], [-73.98492041815766, 4.619555557175066], [-73.98510941658179, 4.6197370669175175], [-73.98561844300912, 4.620186343511575], [-73.98575506958011, 4.62030008695215], [-73.98598794442313, 4.620403735412607], [-73.98636184347376, 4.620570352561873], [-73.98663139860328, 4.620655210366263], [-73.98682429493249, 4.620673501271099], [-73.986987807054, 4.6205452650367], [-73.98711913647193, 4.620465104896474], [-73.98725386406355, 4.620378647887461], [-73.98741677650742, 4.620315479298246], [-73.98755080447506, 4.620277997935996], [-73.9877062209475, 4.620277997935996], [-73.98785713983722, 4.62031178113717], [-73.98797967398218, 4.620366254050332], [-73.98807352354333, 4.620419627510215], [-73.98814588465343, 4.620558658376827], [-73.98822903996216, 4.620750962753374], [-73.98827731401757, 4.620873901622149], [-73.98832628769702, 4.621024226873248], [-73.98840864343549, 4.621314782395776], [-73.98840824365041, 4.621523878424176], [-73.98851748493941, 4.621646717343537], [-73.98888678646092, 4.622019631915707], [-73.98904070373915, 4.622233025808451], [-73.98911746248577, 4.622389847831059], [-73.98913495308558, 4.622458213837168], [-73.98917822982679, 4.622627229796906], [-73.98920751408816, 4.622845921056838], [-73.98926378384637, 4.623062413410597], [-73.98929106918206, 4.62313507728011], [-73.98934424060545, 4.623249320475351], [-73.9894158021452, 4.623361664614978], [-73.98955062968302, 4.623576657715246], [-73.98966736694345, 4.623766963091205], [-73.98978920146436, 4.62394807303965], [-73.98987925306677, 4.62408800346361], [-73.989921830184, 4.624149972651418], [-73.98994961525109, 4.624194950287754], [-73.99021797102519, 4.624610943449617], [-73.99035219888533, 4.624833932576716], [-73.99058277496388, 4.625306797464057], [-73.99090999909953, 4.626039533145495], [-73.99123872242947, 4.626747681056835], [-73.99141342853498, 4.627158176961891], [-73.99175154681565, 4.6278934114137495], [-73.99201960275087, 4.6284652271186175], [-73.99203059684218, 4.628483717925412], [-73.99219330939346, 4.628757981568258], [-73.9924109924013, 4.628988866778322], [-73.99265196289342, 4.629168777331989], [-73.99303685603527, 4.629458533274327], [-73.99313990065465, 4.62953869342131], [-73.99324654334032, 4.629401261747872], [-73.99342654659881, 4.629248037925998], [-73.99356137413672, 4.62915288523307], [-73.99378675300841, 4.629016952814739], [-73.99404091641009, 4.628857931875578], [-73.99421922058178, 4.628743088972464], [-73.99438802985638, 4.628609455411717], [-73.99469366559465, 4.628350284265618], [-73.99498191067933, 4.628117799852013], [-73.99567623751831, 4.6276074535873075], [-73.99590671365056, 4.6274230452725424], [-73.99612389692686, 4.627228042225653], [-73.99635177445576, 4.627059725910747], [-73.99704200349701, 4.626546680992874], [-73.99728597237764, 4.626298204534433], [-73.9975420347587, 4.626051027430529], [-73.99779669789184, 4.625823840388106], [-73.9981478091895, 4.625541980529723], [-73.99831811765841, 4.625412344985179], [-73.99846953627957, 4.625281410086838], [-73.99871480446191, 4.625042328959903], [-73.99907271210695, 4.624649524266735], [-73.99959812972494, 4.624155170067182], [-74.00028576016285, 4.623468511488093], [-74.00090902519337, 4.622881303463654], [-74.00187810436866, 4.621952465313497], [-74.00238882988278, 4.621445717289232], [-74.00278151883494, 4.621035621207456], [-74.003015093302, 4.620779048787604], [-74.00340118579928, 4.620402336108415], [-74.00392660341727, 4.619891889930479], [-74.00457665405213, 4.619312078247886], [-74.00593122604693, 4.618035513044394], [-74.00678196882127, 4.6172197187218], [-74.00759653104049, 4.616493080069223], [-74.00821849676939, 4.615955947181248], [-74.00891012505865, 4.6152932767258585], [-74.00959375764519, 4.614681381023954], [-74.01030947298896, 4.61403210391584], [-74.01179617397204, 4.612787322968695], [-74.01200126374798, 4.612572929592025], [-74.01236206983523, 4.612195717190459], [-74.01236206983523, 4.612195717190459]]]}, "properties": {"layer": "upz"}}]}