{"type": "FeatureCollection", "features": [{"type": "Feature", "geometry": {"type": "Polygon", "coordinates": [[[-74.032877141026, 4.703407517492663], [-74.03590777921522, 4.691967363115445], [-74.04819929609378, 4.684900270302968], [-74.05724703061738, 4.686836296329634], [-74.05390430691871, 4.7067449061176045], [-74.032877141026, 4.703407517492663]]]}, "properties": {"id": 1, "nombre": "SANTA BARBARA", "uplcodigo": "UPZ16"}}, {"type": "Feature", "geometry": {"type": "Polygon", "coordinates": [[[-74.09941660008403, 4.681051617444154], [-74.10388999729824, 4.6746596425812585], [-74.100989112667, 4.670640276872076], [-74.109424552798, 4.662935487368066], [-74.11669359521126, 4.681657737326969], [-74.10921004319299, 4.689740549139812], [-74.09941660008403, 4.681051617444154]]]}, "properties": {"id": 2, "nombre": "SANTA CECILIA", "uplcodigo": "UPZ31"}}, {"type": "Feature", "geometry": {"type": "Polygon", "coordinates": [[[-74.06450069387299, 4.709118485906853], [-74.05724328284603, 4.72545770932553], [-74.0643608702007, 4.728169501263433], [-74.06126489843922, 4.740841459424772], [-74.04869197621304, 4.737778412907408], [-74.05390430691871, 4.7067449061176045], [-74.06450069387299, 4.709118485906853]]]}, "properties": {"id": 3, "nombre": "EL PRADO", "uplcodigo": "UPZ19"}}, {"type": "Feature", "geometry": {"type": "Polygon", "coordinates": [[[-74.09196670704114, 4.554334298046078], [-74.08558725816889, 4.569314260804636], [-74.07801872013484, 4.573455773557528], [-74.08091820159763, 4.580917381051064], [-74.07891513638046, 4.582519843711543], [-74.07288833644435, 4.577534346267407], [-74.07532445340884, 4.5708252801727145], [-74.07009061973024, 4.57014254933072], [-74.0680655691448, 4.564529431397113], [-74.07252859890231, 4.565598685215954], [-74.07446885571142, 4.561944963739474], [-74.07766504083108, 4.567873396804168], [-74.07531860268139, 4.562459585315712], [-74.07703384857984, 4.563651895543777], [-74.07913660792892, 4.557082766288556], [-74.0811184387694, 4.5577842509398625], [-74.08112516804918, 4.552640699314573], [-74.07637654499824, 4.548089557044929], [-74.08350838592155, 4.547472704414007], [-74.08689938598191, 4.551835775220668], [-74.08857089829905, 4.547785958365831], [-74.09196670704114, 4.554334298046078]]]}, "properties": {"id": 4, "nombre": "SAN BLAS", "uplcodigo": "UPZ32"}}, {"type": "Feature", "geometry": {"type": "Polygon", "coordinates": [[[-74.09458245831637, 4.575796995881466], [-74.08493192818598, 4.589318272888457], [-74.07891513638046, 4.582519846397878], [-74.07983395930421, 4.571559012930579], [-74.08640346114784, 4.569358899492079], [-74.09458245831637, 4.575796995881466]]]}, "properties": {"id": 5, "nombre": "SOSIEGO", "uplcodigo": "UPZ33"}}, {"type": "Feature", "geometry": {"type": "Polygon", "coordinates": [[[-74.07038306986422, 4.7010407878164235], [-74.06593962517657, 4.703101156274934], [-74.06450069387299, 4.709118485906853], [-74.05390430691871, 4.7067449061176045], [-74.05724703061738, 4.686836296329634], [-74.06515677844075, 4.689015560768111], [-74.07038306986422, 4.7010407878164235]]]}, "properties": {"id": 6, "nombre": "LA ALHAMBRA", "uplcodigo": "UPZ20"}}, {"type": "Feature", "geometry": {"type": "Polygon", "coordinates": [[[-74.15216010131783, 4.5997586162444515], [-74.16314497280159, 4.606342533360244], [-74.17008049410606, 4.600561307894186], [-74.17400869479117, 4.600169965831343], [-74.17288927536953, 4.603154718163257], [-74.17554028911292, 4.6034241305044326], [-74.17757230433673, 4.600955299291181], [-74.17836082483188, 4.611206173037218], [-74.17471283114178, 4.614516504208783], [-74.1529839345868, 4.617039402726212], [-74.14563678096462, 4.606271655988204], [-74.14671325911905, 4.6020549652534655], [-74.15216010131783, 4.5997586162444515]]]}, "properties": {"id": 7, "nombre": "TIMIZA", "uplcodigo": "UPZ48"}}, {"type": "Feature", "geometry": {"type": "Polygon", "coordinates": [[[-74.15216010131783, 4.5997586162444515], [-74.16794780379003, 4.595754473882311], [-74.17743246808804, 4.596918401825209], [-74.17884279793128, 4.60185849594541], [-74.1731073090654, 4.603217140416976], [-74.17400869479117, 4.600169965831343], [-74.17008049410606, 4.600561307894186], [-74.16314497280159, 4.606342533360244], [-74.15216010131783, 4.5997586162444515]]]}, "properties": {"id": 8, "nombre": "APOGEO", "uplcodigo": "UPZ49"}}, {"type": "Feature", "geometry": {"type": "Polygon", "coordinates": [[[-74.0918793422865, 4.554273843371762], [-74.08857089829905, 4.547785958365831], [-74.08688439579477, 4.551835845068269], [-74.08350838592155, 4.547472704414007], [-74.07545661175682, 4.5476177097742365], [-74.07721161888635, 4.534375905338267], [-74.08183796595577, 4.529477332540833], [-74.08825716258441, 4.541664295586912], [-74.10116064327555, 4.548806185068386], [-74.10317962933449, 4.546926327959], [-74.10176154343709, 4.555905400517801], [-74.1062716817464, 4.563896821906595], [-74.0918793422865, 4.554273843371762]]]}, "properties": {"id": 9, "nombre": "LA GLORIA", "uplcodigo": "UPZ50"}}, {"type": "Feature", "geometry": {"type": "Polygon", "coordinates": [[[-74.10435299258893, 4.505594405394263], [-74.10984988532208, 4.490637639447888], [-74.12045929066147, 4.487517733153423], [-74.12270179912265, 4.499627298506883], [-74.12844226375691, 4.504408070226058], [-74.12561031494225, 4.5201615457859186], [-74.12885640327256, 4.524717707911465], [-74.12648249014991, 4.525635767523019], [-74.12236963985985, 4.519974410483186], [-74.12140151739332, 4.511326539302553], [-74.10435299258893, 4.505594405394263]]]}, "properties": {"id": 10, "nombre": "COMUNEROS", "uplcodigo": "UPZ58"}}, {"type": "Feature", "geometry": {"type": "Polygon", "coordinates": [[[-74.08613766582494, 4.5397237884408534], [-74.08017384767172, 4.526546042168462], [-74.08284936206617, 4.527766568490799], [-74.08782035857413, 4.520647733944573], [-74.08189181816041, 4.517817601169677], [-74.09107069503742, 4.51968404386272], [-74.08955515181314, 4.5170957232974995], [-74.09491344078619, 4.517272375434598], [-74.09522071042743, 4.535334286120008], [-74.10262879318205, 4.5463376634240635], [-74.10127106419029, 4.5487249080938374], [-74.08613766582494, 4.5397237884408534]]]}, "properties": {"id": 11, "nombre": "LOS LIBERTADORES", "uplcodigo": "UPZ51"}}, {"type": "Feature", "geometry": {"type": "MultiPolygon", "coordinates": [[[[-74.08736926775758, 4.516971940238209], [-74.08852146400898, 4.508697098185527], [-74.08254508201819, 4.507449088874359], [-74.08808316071048, 4.504480983351237], [-74.08641293298419, 4.50174610300452], [-74.07858931383363, 4.502506351342255], [-74.08889568957991, 4.497474036962366], [-74.0938000077376, 4.503144760378447], [-74.09516686361266, 4.516999658532449], [-74.08736926775758, 4.516971940238209]]], [[[-74.08309440989927, 4.499091990741263], [-74.0788593087805, 4.499124902995457], [-74.08257142511388, 4.497745409807856], [-74.08309440989927, 4.499091990741263]]]]}, "properties": {"id": 12, "nombre": "LA FLORA", "uplcodigo": "UPZ52"}}, {"type": "Feature", "geometry": {"type": "Polygon", "coordinates": [[[-74.10458595538651, 4.5646683853405], [-74.1097806270103, 4.5625216314446595], [-74.12543881397809, 4.569075602723778], [-74.12296787022835, 4.574944464127236], [-74.11500417138566, 4.57665113216404], [-74.10458595538651, 4.5646683853405]]]}, "properties": {"id": 13, "nombre": "MARCO FIDEL SUAREZ", "uplcodigo": "UPZ53"}}, {"type": "Feature", "geometry": {"type": "Polygon", "coordinates": [[[-74.1062716817464, 4.563896821906595], [-74.10491626411985, 4.553547586324626], [-74.1201274511989, 4.5443148293298], [-74.12543881397809, 4.569075602723778], [-74.11003214091681, 4.562587960594353], [-74.1062716817464, 4.563896821906595]]]}, "properties": {"id": 14, "nombre": "MARRUECOS", "uplcodigo": "UPZ54"}}, {"type": "Feature", "geometry": {"type": "Polygon", "coordinates": [[[-74.10558027991324, 4.552870164479258], [-74.10314753522435, 4.543932138335866], [-74.09814826514113, 4.534945817951689], [-74.1201274511989, 4.5443148293298], [-74.110146819846, 4.55252299818499], [-74.10558027991324, 4.552870164479258]]]}, "properties": {"id": 15, "nombre": "DIANA TURBAY", "uplcodigo": "UPZ55"}}, {"type": "Feature", "geometry": {"type": "Polygon", "coordinates": [[[-74.14560159126002, 4.690450232383802], [-74.13038846292164, 4.677588664925432], [-74.14013205312557, 4.663516813007447], [-74.15112153566166, 4.667986731947652], [-74.15644485591564, 4.682513557960214], [-74.14560159126002, 4.690450232383802]]]}, "properties": {"id": 16, "nombre": "FONTIBON", "uplcodigo": "UPZ75"}}, {"type": "Feature", "geometry": {"type": "Polygon", "coordinates": [[[-74.09371541608223, 4.666065228131579], [-74.10341575779512, 4.6535072845853716], [-74.109424552798, 4.662935487368066], [-74.10089990456939, 4.670721756573967], [-74.09371541608223, 4.666065228131579]]]}, "properties": {"id": 17, "nombre": "JARDIN BOTANICO", "uplcodigo": "UPZ105"}}, {"type": "Feature", "geometry": {"type": "Polygon", "coordinates": [[[-74.1048047598369, 4.564506395530544], [-74.09458245831637, 4.575796995881466], [-74.08530939308184, 4.569581534120759], [-74.09196670704114, 4.554334298046078], [-74.1048047598369, 4.564506395530544]]]}, "properties": {"id": 18, "nombre": "20 DE JULIO", "uplcodigo": "UPZ34"}}, {"type": "Feature", "geometry": {"type": "Polygon", "coordinates": [[[-74.08493086997056, 4.589319822886625], [-74.09458245831637, 4.575796995881466], [-74.10249417165357, 4.5812600599587805], [-74.08948347074505, 4.5916828668707375], [-74.08493086997056, 4.589319822886625]]]}, "properties": {"id": 19, "nombre": "CIUDAD JARDIN", "uplcodigo": "UPZ35"}}, {"type": "Feature", "geometry": {"type": "Polygon", "coordinates": [[[-74.09458245831637, 4.575796995881466], [-74.10458595538651, 4.5646683853405], [-74.11500417138566, 4.57665113216404], [-74.10249417165357, 4.5812600599587805], [-74.09458245831637, 4.575796995881466]]]}, "properties": {"id": 20, "nombre": "SAN JOSE", "uplcodigo": "UPZ36"}}, {"type": "Feature", "geometry": {"type": "Polygon", "coordinates": [[[-74.13087511714197, 4.585899687736303], [-74.12829044667727, 4.592653219168775], [-74.11686324564593, 4.588447181434369], [-74.10888233957395, 4.589228359556353], [-74.10249417165357, 4.5812600599587805], [-74.12296787022835, 4.574944464127236], [-74.12525577235749, 4.569567339291494], [-74.13087511714197, 4.585899687736303]]]}, "properties": {"id": 21, "nombre": "QUIROGA", "uplcodigo": "UPZ39"}}, {"type": "Feature", "geometry": {"type": "Polygon", "coordinates": [[[-74.05711032409914, 4.65184260727517], [-74.05292739623376, 4.658821393935801], [-74.05620592093231, 4.6609482442799965], [-74.04439776505026, 4.680636816974374], [-74.03489802881839, 4.6784718811266455], [-74.03921302609854, 4.67360005801306], [-74.03789698073258, 4.667919261245439], [-74.04235939604244, 4.668553519433699], [-74.04142067094357, 4.663716986220691], [-74.04470957298031, 4.664185998823085], [-74.04401791692395, 4.659577612784563], [-74.04671201207172, 4.659443776406276], [-74.04611533129709, 4.649009692935261], [-74.05012193424524, 4.652361243028133], [-74.05711032409914, 4.65184260727517]]]}, "properties": {"id": 22, "nombre": "EL REFUGIO", "uplcodigo": "UPZ88"}}, {"type": "Feature", "geometry": {"type": "Polygon", "coordinates": [[[-74.1290602759263, 4.60932653898901], [-74.10581563222948, 4.618452061737105], [-74.09788385591872, 4.6065481328566], [-74.11327203536324, 4.5958778672990785], [-74.1290602759263, 4.60932653898901]]]}, "properties": {"id": 23, "nombre": "CIUDAD MONTES", "uplcodigo": "UPZ40"}}, {"type": "Feature", "geometry": {"type": "Polygon", "coordinates": [[[-74.02197006274756, 4.662904021467177], [-74.02698701616713, 4.669259666101917], [-74.02312119988524, 4.6739233073104645], [-74.00978469259958, 4.665429993566013], [-74.01994248609955, 4.665660666837635], [-74.02197006274756, 4.662904021467177]]]}, "properties": {"id": 24, "nombre": "SAN ISIDRO - PATIOS", "uplcodigo": "UPZ89"}}, {"type": "Feature", "geometry": {"type": "Polygon", "coordinates": [[[-74.081450144383, 4.594559830840584], [-74.07660716319293, 4.602158693282668], [-74.0592745021625, 4.601666917365006], [-74.06504770589726, 4.599052696525683], [-74.06843759384331, 4.589865291305563], [-74.0797273831789, 4.591092242266429], [-74.081450144383, 4.594559830840584]]]}, "properties": {"id": 25, "nombre": "LA CANDELARIA", "uplcodigo": "UPZ94"}}, {"type": "Feature", "geometry": {"type": "Polygon", "coordinates": [[[-74.08478262998239, 4.596962752252567], [-74.08900489597238, 4.591819546516444], [-74.10320445607398, 4.5946612712461725], [-74.10707300503098, 4.598243987717903], [-74.09788385591872, 4.6065481328566], [-74.08478262998239, 4.596962752252567]]]}, "properties": {"id": 26, "nombre": "SANTA ISABEL", "uplcodigo": "UPZ37"}}, {"type": "Feature", "geometry": {"type": "Polygon", "coordinates": [[[-74.04667655736408, 4.751344231294887], [-74.04553961720116, 4.7577725338738635], [-74.0406122419851, 4.76026446712171], [-74.04043507714309, 4.757137081413017], [-74.02109604958683, 4.757049104483429], [-74.01661619168911, 4.747906757416193], [-74.02245966523866, 4.746508352326588], [-74.02246541535477, 4.741013729907193], [-74.03170381190756, 4.742897133201886], [-74.03157332083275, 4.7483157139341685], [-74.04667655736408, 4.751344231294887]]]}, "properties": {"id": 27, "nombre": "LA URIBE", "uplcodigo": "UPZ10"}}, {"type": "Feature", "geometry": {"type": "Polygon", "coordinates": [[[-74.06463473958138, 4.649647361592352], [-74.06706736299772, 4.636440597772417], [-74.07391456284178, 4.637627194317388], [-74.07539320417249, 4.633813274064687], [-74.07953089827005, 4.6346010692824695], [-74.0783193494295, 4.651994479359278], [-74.06463473958138, 4.649647361592352]]]}, "properties": {"id": 28, "nombre": "GALERIAS", "uplcodigo": "UPZ100"}}, {"type": "Feature", "geometry": {"type": "Polygon", "coordinates": [[[-74.06706736299772, 4.636440597772417], [-74.06971171034338, 4.621638521589009], [-74.0728291177042, 4.615417332306098], [-74.07882820730872, 4.623891494248744], [-74.08319894684888, 4.624698289060751], [-74.07953089827005, 4.6346010692824695], [-74.07539320417249, 4.633813274064687], [-74.07391456284178, 4.637627194317388], [-74.06706736299772, 4.636440597772417]]]}, "properties": {"id": 29, "nombre": "TEUSAQUILLO", "uplcodigo": "UPZ101"}}, {"type": "Feature", "geometry": {"type": "Polygon", "coordinates": [[[-74.07750474455347, 4.65848563683969], [-74.0783193494295, 4.651994479359278], [-74.08361320943374, 4.653346281109825], [-74.09371541608223, 4.666065228131579], [-74.08925139368634, 4.6718901254834435], [-74.07750474455347, 4.65848563683969]]]}, "properties": {"id": 30, "nombre": "PARQUE SALITRE", "uplcodigo": "UPZ103"}}, {"type": "Feature", "geometry": {"type": "Polygon", "coordinates": [[[-74.08581431813674, 4.655351206493546], [-74.09558063302241, 4.650147538464681], [-74.0889849363051, 4.6399210103478215], [-74.08409831226356, 4.645173460824219], [-74.07895355732515, 4.642714839904464], [-74.07964026995252, 4.633255190363571], [-74.08288046443626, 4.631918739039746], [-74.0918387177744, 4.635692844954708], [-74.10341575779512, 4.6535072845853716], [-74.09371541608223, 4.666065228131579], [-74.08581431813674, 4.655351206493546]]]}, "properties": {"id": 31, "nombre": "PARQUE SIMON BOLIVAR - CAN", "uplcodigo": "UPZ104"}}, {"type": "Feature", "geometry": {"type": "Polygon", "coordinates": [[[-74.0783193494295, 4.651994479359278], [-74.07895355732515, 4.642714839904464], [-74.08409831226356, 4.645173460824219], [-74.0889849363051, 4.6399210103478215], [-74.09558063302241, 4.650147538464681], [-74.08581431813674, 4.655351206493546], [-74.0783193494295, 4.651994479359278]]]}, "properties": {"id": 32, "nombre": "LA ESMERALDA", "uplcodigo": "UPZ106"}}, {"type": "Feature", "geometry": {"type": "Polygon", "coordinates": [[[-74.09244547944319, 4.63648017785411], [-74.08288046533457, 4.631918739039746], [-74.07964026995252, 4.633255190363571], [-74.08319894684888, 4.624698289060751], [-74.09145150436109, 4.625717199809257], [-74.10086345901999, 4.635373025297645], [-74.09651534265195, 4.638383958809996], [-74.0953622435937, 4.634523379117255], [-74.09244547944319, 4.63648017785411]]]}, "properties": {"id": 33, "nombre": "QUINTA PAREDES", "uplcodigo": "UPZ107"}}, {"type": "Feature", "geometry": {"type": "Polygon", "coordinates": [[[-74.17077334222681, 4.6284820947077945], [-74.17705747086427, 4.625847683980765], [-74.18557691335577, 4.646833095989664], [-74.18214447490969, 4.6496565927429545], [-74.17077334222681, 4.6284820947077945]]]}, "properties": {"id": 34, "nombre": "LAS MARGARITAS", "uplcodigo": "UPZ83"}}, {"type": "Feature", "geometry": {"type": "Polygon", "coordinates": [[[-74.10692529684545, 4.627259683441265], [-74.08319894684888, 4.624698289060751], [-74.09788385591872, 4.6065481328566], [-74.10483890300421, 4.614309449301025], [-74.10692529684545, 4.627259683441265]]]}, "properties": {"id": 35, "nombre": "ZONA INDUSTRIAL", "uplcodigo": "UPZ108"}}, {"type": "Feature", "geometry": {"type": "Polygon", "coordinates": [[[-74.09244547944319, 4.63648017785411], [-74.0953622435937, 4.634523379117255], [-74.09651534265195, 4.638383958809996], [-74.10086345901999, 4.635373025297645], [-74.11044521413224, 4.645137208405102], [-74.10341575779512, 4.6535072845853716], [-74.09244547944319, 4.63648017785411]]]}, "properties": {"id": 36, "nombre": "CIUDAD SALITRE ORIENTAL", "uplcodigo": "UPZ109"}}, {"type": "Feature", "geometry": {"type": "Polygon", "coordinates": [[[-74.03211256332811, 4.73114154474393], [-74.03181437655272, 4.742900509149059], [-74.02246541535477, 4.741013729907193], [-74.02245966523866, 4.746508352326588], [-74.01968917915575, 4.746796304460834], [-74.01469918866943, 4.742422162965923], [-74.01897921723051, 4.740906284783063], [-74.01823883026489, 4.736848890134317], [-74.01249116293873, 4.734835659166613], [-74.01362846691936, 4.728722352586828], [-74.02104859338698, 4.733187449724026], [-74.02049104232779, 4.7295028099574825], [-74.02396644360068, 4.73119240235736], [-74.02460843988985, 4.727581412998353], [-74.03211256332811, 4.73114154474393]]]}, "properties": {"id": 37, "nombre": "SAN CRISTOBAL NORTE", "uplcodigo": "UPZ11"}}, {"type": "Feature", "geometry": {"type": "Polygon", "coordinates": [[[-74.11163250935843, 4.6663998507938915], [-74.10341575779512, 4.6535072845853716], [-74.11044521413224, 4.645137208405102], [-74.1206931562659, 4.655852271978499], [-74.11163250935843, 4.6663998507938915]]]}, "properties": {"id": 38, "nombre": "CIUDAD SALITRE OCCIDENTAL", "uplcodigo": "UPZ110"}}, {"type": "Feature", "geometry": {"type": "Polygon", "coordinates": [[[-74.11044521413224, 4.645137208405102], [-74.09145150436109, 4.625717199809257], [-74.12241484488158, 4.629032123709347], [-74.11044521413224, 4.645137208405102]]]}, "properties": {"id": 39, "nombre": "PUENTE ARANDA", "uplcodigo": "UPZ111"}}, {"type": "Feature", "geometry": {"type": "Polygon", "coordinates": [[[-74.13510137524509, 4.670629976075063], [-74.11044521503055, 4.645137208405102], [-74.11829864028222, 4.637411585492017], [-74.13231675327286, 4.6488945908487], [-74.14078734627756, 4.662656239983412], [-74.13510137524509, 4.670629976075063]]]}, "properties": {"id": 40, "nombre": "GRANJAS DE TECHO", "uplcodigo": "UPZ112"}}, {"type": "Feature", "geometry": {"type": "Polygon", "coordinates": [[[-74.13777406443796, 4.630478942749248], [-74.13598907603581, 4.639007356778424], [-74.12856814827093, 4.647734147956748], [-74.11829864028222, 4.637411585492017], [-74.12241484488158, 4.629032123709347], [-74.13777406443796, 4.630478942749248]]]}, "properties": {"id": 41, "nombre": "BAVARIA", "uplcodigo": "UPZ113"}}, {"type": "Feature", "geometry": {"type": "Polygon", "coordinates": [[[-74.11217795472082, 4.665745440172587], [-74.1206931562659, 4.655852271978499], [-74.13464381566017, 4.670158640808986], [-74.13182722713856, 4.672513903826792], [-74.12680680891694, 4.670523851444745], [-74.12120703033767, 4.677413518174323], [-74.11217795472082, 4.665745440172587]]]}, "properties": {"id": 42, "nombre": "MODELIA", "uplcodigo": "UPZ114"}}, {"type": "Feature", "geometry": {"type": "Polygon", "coordinates": [[[-74.04869197621304, 4.737778412907408], [-74.04667655736408, 4.751344231294887], [-74.03157332083275, 4.7483157139341685], [-74.03211256332811, 4.73114154474393], [-74.04869197621304, 4.737778412907408]]]}, "properties": {"id": 43, "nombre": "TOBERIN", "uplcodigo": "UPZ12"}}, {"type": "Feature", "geometry": {"type": "Polygon", "coordinates": [[[-74.05184888070026, 4.7189861923376615], [-74.04869197621304, 4.737778412907408], [-74.02460843988985, 4.727581412998353], [-74.02346809690862, 4.731082140131829], [-74.01811739420818, 4.72374713317186], [-74.02237930464827, 4.721136462298614], [-74.0197464000427, 4.714728275309784], [-74.02307577477626, 4.714817946112754], [-74.02329397735541, 4.711511273881907], [-74.05184888070026, 4.7189861923376615]]]}, "properties": {"id": 44, "nombre": "LOS CEDROS", "uplcodigo": "UPZ13"}}, {"type": "Feature", "geometry": {"type": "Polygon", "coordinates": [[[-74.03592325898418, 4.678927839919658], [-74.04819929609378, 4.684900270302968], [-74.03516160081098, 4.6928567029355275], [-74.03261530817184, 4.712743860879948], [-74.02431472941949, 4.711802974777457], [-74.02489893079822, 4.7073347121782145], [-74.02066346406511, 4.705418264796201], [-74.0254092915589, 4.702075130095543], [-74.02204571886078, 4.693529633514533], [-74.0248194667265, 4.687332278124069], [-74.02281340113629, 4.686866515777549], [-74.02672874064147, 4.683562476572393], [-74.02307220397302, 4.68272219723554], [-74.03592325898418, 4.678927839919658]]]}, "properties": {"id": 45, "nombre": "USAQUEN", "uplcodigo": "UPZ14"}}, {"type": "Feature", "geometry": {"type": "Polygon", "coordinates": [[[-74.07750474455347, 4.65848563683969], [-74.08925139368634, 4.6718901254834435], [-74.0790227662296, 4.684006142953092], [-74.06739283160832, 4.6739297841132235], [-74.07750474455347, 4.65848563683969]]]}, "properties": {"id": 46, "nombre": "DOCE DE OCTUBRE", "uplcodigo": "UPZ22"}}, {"type": "Feature", "geometry": {"type": "Polygon", "coordinates": [[[-74.07827782480551, 4.7338570574690335], [-74.07412737732585, 4.744608046065086], [-74.07590813106975, 4.751185279915069], [-74.07237985765418, 4.7539493872094045], [-74.07563517797067, 4.7590819663338415], [-74.06887350313156, 4.762638183770885], [-74.06580706079009, 4.760457393451287], [-74.06509590590215, 4.7424723751769635], [-74.06126489843922, 4.740841459424772], [-74.0643409518559, 4.728149512831054], [-74.07827782480551, 4.7338570574690335]]]}, "properties": {"id": 47, "nombre": "CASA BLANCA SUBA", "uplcodigo": "UPZ23"}}, {"type": "Feature", "geometry": {"type": "Polygon", "coordinates": [[[-74.12468082811776, 4.694935657857611], [-74.12270661768586, 4.697705260939716], [-74.10921004319299, 4.689740549139812], [-74.11669359521126, 4.681657737326969], [-74.11297306166364, 4.668503304576233], [-74.12465090433733, 4.684803913026236], [-74.11840027387684, 4.688651401920361], [-74.12468082811776, 4.694935657857611]]]}, "properties": {"id": 48, "nombre": "ALAMOS", "uplcodigo": "UPZ116"}}, {"type": "Feature", "geometry": {"type": "Polygon", "coordinates": [[[-74.09280060413623, 4.717055822465406], [-74.08075762594395, 4.710728542853926], [-74.08480715309132, 4.707966346320426], [-74.0811982082683, 4.703716812440378], [-74.07054156142645, 4.701559648565065], [-74.06515677844075, 4.689015562558729], [-74.07115508381605, 4.689355413597883], [-74.07732779261217, 4.68535968797854], [-74.08094843439851, 4.693143744426672], [-74.08836863003643, 4.6985303559250555], [-74.08798857799253, 4.705654110377295], [-74.09360819316991, 4.711977209559027], [-74.09280060413623, 4.717055822465406]]]}, "properties": {"id": 49, "nombre": "LA FLORESTA", "uplcodigo": "UPZ25"}}, {"type": "Feature", "geometry": {"type": "Polygon", "coordinates": [[[-74.07732779261217, 4.68535968797854], [-74.09371541608223, 4.666065228131579], [-74.10388999729824, 4.6746596425812585], [-74.08934202741031, 4.6953686889015], [-74.08543126931306, 4.69653087756966], [-74.0810880002543, 4.693264518158859], [-74.07732779261217, 4.68535968797854]]]}, "properties": {"id": 50, "nombre": "LAS FERIAS", "uplcodigo": "UPZ26"}}, {"type": "Feature", "geometry": {"type": "Polygon", "coordinates": [[[-74.1057941211717, 4.751525339532449], [-74.10037189909991, 4.7680274854397044], [-74.10132233014524, 4.76196534896258], [-74.08864485479978, 4.757516453481551], [-74.07563517797067, 4.7590819663338415], [-74.07237985765418, 4.7539493872094045], [-74.07590813106975, 4.751185279915069], [-74.07412737732585, 4.744608046065086], [-74.07827782480551, 4.7338570574690335], [-74.1057941211717, 4.751525339532449]]]}, "properties": {"id": 51, "nombre": "SUBA", "uplcodigo": "UPZ27"}}, {"type": "Feature", "geometry": {"type": "Polygon", "coordinates": [[[-74.1377661844163, 4.594885111300487], [-74.12906029928249, 4.609326554210973], [-74.11327203536324, 4.5958778672990785], [-74.12635174485189, 4.5932512360476885], [-74.1377661844163, 4.594885111300487]]]}, "properties": {"id": 52, "nombre": "MUZU", "uplcodigo": "UPZ41"}}, {"type": "Feature", "geometry": {"type": "Polygon", "coordinates": [[[-74.10343811686255, 4.723311537853204], [-74.1057941211717, 4.751525339532449], [-74.0786804820552, 4.734089503071262], [-74.08410612940318, 4.733079741074883], [-74.08216948741475, 4.7265860552027466], [-74.08448612215824, 4.717151022171018], [-74.09280060413623, 4.717055823360687], [-74.09344227882852, 4.712888131366385], [-74.10013783317116, 4.718340516933223], [-74.10343811686255, 4.723311537853204]]]}, "properties": {"id": 53, "nombre": "EL RINCON", "uplcodigo": "UPZ28"}}, {"type": "Feature", "geometry": {"type": "MultiPolygon", "coordinates": [[[[-74.1204938452572, 4.4905817718770695], [-74.1285392350952, 4.475274543073254], [-74.12813857390205, 4.489580175929993], [-74.14372144970969, 4.488995313952896], [-74.14133472930604, 4.493909234711943], [-74.14761524941099, 4.493177678130692], [-74.14782052882647, 4.499964225424553], [-74.13489732023335, 4.50958499946856], [-74.13658241417929, 4.514086921388856], [-74.13197899481088, 4.511313085723291], [-74.13266818409349, 4.523908653005327], [-74.12899440965303, 4.524405567826104], [-74.12561031494225, 4.5201615457859186], [-74.12845570165524, 4.504475797275846], [-74.12273894984956, 4.499698839238404], [-74.12312110574784, 4.491505539009648], [-74.1204938452572, 4.4905817718770695]]], [[[-74.14307900066963, 4.508729023125185], [-74.1474882734439, 4.505928595468778], [-74.15017733533115, 4.507296542206072], [-74.14915886678452, 4.510723564733431], [-74.14307900066963, 4.508729023125185]]]]}, "properties": {"id": 54, "nombre": "MONTE BLANCO", "uplcodigo": "UPZ64"}}, {"type": "Feature", "geometry": {"type": "MultiPolygon", "coordinates": [[[[-74.10371321963011, 4.545517971031093], [-74.09577664362078, 4.537998435895493], [-74.09382167689888, 4.519591904513205], [-74.09516895489064, 4.513735412847356], [-74.10540414543885, 4.5122278398885145], [-74.10296456007904, 4.5166455839303525], [-74.1079212679841, 4.5165305169459815], [-74.10716262815023, 4.5229429290625465], [-74.11105167396705, 4.5308741910995805], [-74.10298443889798, 4.532400003428565], [-74.10928730729057, 4.539384690513149], [-74.09814826514113, 4.534945817951689], [-74.10371321963011, 4.545517971031093]]], [[[-74.10176154343709, 4.555905400517801], [-74.10317962933449, 4.546926327959], [-74.10487537640138, 4.5619660242829205], [-74.10176154343709, 4.555905400517801]]]]}, "properties": {"id": 55, "nombre": "PARQUE ENTRENUBES", "uplcodigo": "UPZ60"}}, {"type": "Feature", "geometry": {"type": "Polygon", "coordinates": [[[-74.15226370312124, 4.59568689689605], [-74.12829044667727, 4.592653219168775], [-74.13087511714197, 4.585899687736303], [-74.1254579103644, 4.569024272242267], [-74.12972771070767, 4.570552027447795], [-74.14062653077372, 4.567002401921007], [-74.14199571957357, 4.577200795586236], [-74.14483950638703, 4.573010683043111], [-74.14770327622401, 4.573990364459665], [-74.14999024320691, 4.578326785841644], [-74.147215859334, 4.581947291446577], [-74.15215505817584, 4.585407672268358], [-74.15049479815593, 4.587985610782083], [-74.15695650486043, 4.58870354119345], [-74.15138850328601, 4.591400205747973], [-74.15418739679316, 4.592856341378733], [-74.15226370312124, 4.59568689689605]]]}, "properties": {"id": 56, "nombre": "VENECIA", "uplcodigo": "UPZ42"}}, {"type": "Feature", "geometry": {"type": "Polygon", "coordinates": [[[-74.12906029928249, 4.609326554210973], [-74.12241484488158, 4.629032123709347], [-74.10692529684545, 4.627259683441265], [-74.10581563222948, 4.618452061737105], [-74.12906029928249, 4.609326554210973]]]}, "properties": {"id": 57, "nombre": "SAN RAFAEL", "uplcodigo": "UPZ43"}}, {"type": "Feature", "geometry": {"type": "Polygon", "coordinates": [[[-74.14840656187006, 4.631416659993591], [-74.12241484488158, 4.629032123709347], [-74.12906029928249, 4.609326554210973], [-74.14636425015642, 4.624080619728935], [-74.14840656187006, 4.631416659993591]]]}, "properties": {"id": 58, "nombre": "AMERICAS", "uplcodigo": "UPZ44"}}, {"type": "Feature", "geometry": {"type": "Polygon", "coordinates": [[[-74.03848523890312, 4.799522777051382], [-74.04370796940484, 4.768129189850909], [-74.06382647231966, 4.772350829899427], [-74.05357845113423, 4.799503326897454], [-74.0490983632678, 4.797928388052644], [-74.04807748903283, 4.802782889111481], [-74.04250769711606, 4.801692194397749], [-74.04151530396717, 4.807697023938775], [-74.04440708776627, 4.808451646060266], [-74.04069428062841, 4.810051087748423], [-74.03848523890312, 4.799522777051382]]]}, "properties": {"id": 59, "nombre": "LA ACADEMIA", "uplcodigo": "UPZ2"}}, {"type": "Feature", "geometry": {"type": "Polygon", "coordinates": [[[-74.13308186726498, 4.69117850593421], [-74.12089843568138, 4.681014596902345], [-74.11217795472082, 4.665745440172587], [-74.12120703033767, 4.677413518174323], [-74.12680680891694, 4.670523851444745], [-74.13510137524509, 4.670629976075063], [-74.13038846292164, 4.677588664925432], [-74.13711550321497, 4.686165034430906], [-74.13308186726498, 4.69117850593421]]]}, "properties": {"id": 60, "nombre": "CAPELLANIA", "uplcodigo": "UPZ115"}}, {"type": "Feature", "geometry": {"type": "Polygon", "coordinates": [[[-74.14185654807817, 4.619130182477533], [-74.1290856380617, 4.609248377753688], [-74.1377661844163, 4.594885111300487], [-74.15226370312124, 4.59568689689605], [-74.14971963021917, 4.5956548979116825], [-74.15216010131783, 4.5997586162444515], [-74.14671325911905, 4.6020549652534655], [-74.14563678096462, 4.606271655988204], [-74.1529839345868, 4.617039402726212], [-74.14185654807817, 4.619130182477533]]]}, "properties": {"id": 61, "nombre": "CARVAJAL", "uplcodigo": "UPZ45"}}, {"type": "Feature", "geometry": {"type": "Polygon", "coordinates": [[[-74.13711210129499, 4.658072508966359], [-74.12856814827093, 4.647734147956748], [-74.13598907603581, 4.639007356778424], [-74.13777406443796, 4.630478942749248], [-74.15514039791852, 4.631831463520465], [-74.15631497659353, 4.6405905785279975], [-74.13711210129499, 4.658072508966359]]]}, "properties": {"id": 62, "nombre": "CASTILLA", "uplcodigo": "UPZ46"}}, {"type": "Feature", "geometry": {"type": "Polygon", "coordinates": [[[-74.17471283114178, 4.614516504208783], [-74.15508929096536, 4.631828145236471], [-74.14840656187006, 4.631416659993591], [-74.14186047820755, 4.61980962507053], [-74.17471283114178, 4.614516504208783]]]}, "properties": {"id": 63, "nombre": "KENNEDY CENTRAL", "uplcodigo": "UPZ47"}}, {"type": "Feature", "geometry": {"type": "Polygon", "coordinates": [[[-74.17751393989441, 4.654241539868453], [-74.17124385282318, 4.657048126890464], [-74.16459622988917, 4.6498463577744], [-74.15449603367027, 4.656224703892202], [-74.14699281573377, 4.649109932928826], [-74.15631497659353, 4.6405905785279975], [-74.16033866460008, 4.6455549988658476], [-74.16689178566452, 4.639892880467534], [-74.17751393989441, 4.654241539868453]]]}, "properties": {"id": 64, "nombre": "CALANDAIMA", "uplcodigo": "UPZ79"}}, {"type": "Feature", "geometry": {"type": "Polygon", "coordinates": [[[-74.14560159126002, 4.690450232383802], [-74.15644485591564, 4.682513557960214], [-74.1723953277274, 4.695996916533951], [-74.16939314097989, 4.701046865962368], [-74.17699734213072, 4.702784058592608], [-74.16527756699787, 4.705405869538814], [-74.14560159126002, 4.690450232383802]]]}, "properties": {"id": 65, "nombre": "FONTIBON SAN PABLO", "uplcodigo": "UPZ76"}}, {"type": "Feature", "geometry": {"type": "Polygon", "coordinates": [[[-74.03501126774817, 4.825525087118506], [-74.03848523890312, 4.799522777051382], [-74.04069428062841, 4.810051087748423], [-74.04437794911341, 4.808411388313152], [-74.05853376575224, 4.815189812129561], [-74.05755701586573, 4.821939145401624], [-74.05391208632906, 4.818311985007632], [-74.05238084684184, 4.8286314412435], [-74.04569043086263, 4.827427184522747], [-74.04245387096255, 4.830660933902082], [-74.04078077401724, 4.826496178446075], [-74.03501126774817, 4.825525087118506]]]}, "properties": {"id": 66, "nombre": "GUAYMARAL", "uplcodigo": "UPZ3"}}, {"type": "Feature", "geometry": {"type": "Polygon", "coordinates": [[[-74.10922988428266, 4.528955236765471], [-74.1079212679841, 4.5165305169459815], [-74.10296456007904, 4.5166455839303525], [-74.10540414543885, 4.5122278398885145], [-74.09452089587164, 4.514084511521071], [-74.09899687304731, 4.5038513795546935], [-74.09508600715226, 4.50205221597506], [-74.09562228969877, 4.499309973164639], [-74.1049815419966, 4.506410826822297], [-74.11355628926859, 4.507037404172815], [-74.12188745565638, 4.512021895487146], [-74.12236963985985, 4.519974410483186], [-74.12648249014991, 4.525635767523019], [-74.12279004602293, 4.531351686536973], [-74.11975296062492, 4.5269320172645395], [-74.10922988428266, 4.528955236765471]]]}, "properties": {"id": 67, "nombre": "GRAN YOMASA", "uplcodigo": "UPZ57"}}, {"type": "Feature", "geometry": {"type": "Polygon", "coordinates": [[[-74.0947931662511, 4.499909055303611], [-74.09952907903909, 4.49510740290217], [-74.09613971930241, 4.485629302454445], [-74.10667850717901, 4.487314084251164], [-74.10987655091299, 4.490677047562715], [-74.10435299258893, 4.505594405394263], [-74.0947931662511, 4.499909055303611]]]}, "properties": {"id": 68, "nombre": "ALFONSO LOPEZ", "uplcodigo": "UPZ59"}}, {"type": "Feature", "geometry": {"type": "Polygon", "coordinates": [[[-74.12608586329073, 4.544822986433213], [-74.12321327828589, 4.5274590738465355], [-74.13266818409349, 4.523908653005327], [-74.1349347260818, 4.532982244231781], [-74.13056043729794, 4.537754475024086], [-74.1370529220807, 4.547717013924187], [-74.13412940619251, 4.556459042318452], [-74.13196963526393, 4.549550765832455], [-74.12536366900628, 4.547505709391362], [-74.12997784300526, 4.5460378053604416], [-74.12608586329073, 4.544822986433213]]]}, "properties": {"id": 69, "nombre": "EL MOCHUELO", "uplcodigo": "UPZ63"}}, {"type": "Feature", "geometry": {"type": "Polygon", "coordinates": [[[-74.12775299901581, 4.570258529186903], [-74.12146578825865, 4.5556324653810165], [-74.12114808288872, 4.545429558421954], [-74.12386844208046, 4.544489567420948], [-74.12997784300526, 4.5460378053604416], [-74.12536366900628, 4.547505709391362], [-74.13196963526393, 4.549550765832455], [-74.13387728322823, 4.560712537164118], [-74.14050819570134, 4.565068090786666], [-74.12775299901581, 4.570258529186903]]]}, "properties": {"id": 70, "nombre": "TUNJUELITO", "uplcodigo": "UPZ62"}}, {"type": "Feature", "geometry": {"type": "Polygon", "coordinates": [[[-74.16197332173606, 4.595624417570431], [-74.15216010131783, 4.5997586162444515], [-74.14969520861985, 4.59571146383415], [-74.15418739679316, 4.592856341378733], [-74.15138850328601, 4.591400205747973], [-74.15695650486043, 4.58870354119345], [-74.15049479815593, 4.587985610782083], [-74.15215505817584, 4.585407672268358], [-74.147215859334, 4.581947291446577], [-74.14999024320691, 4.578326785841644], [-74.14744732463998, 4.573743683767372], [-74.14096114603052, 4.576074162415881], [-74.14324501921561, 4.57282711732058], [-74.14062653077372, 4.567002401921007], [-74.15433143536075, 4.574952312773799], [-74.16197332173606, 4.595624417570431]]]}, "properties": {"id": 71, "nombre": "ARBORIZADORA", "uplcodigo": "UPZ65"}}, {"type": "Feature", "geometry": {"type": "Polygon", "coordinates": [[[-74.04370796940484, 4.768129189850909], [-74.04667655736408, 4.751344231294887], [-74.05744253366763, 4.753726570173642], [-74.06883070469648, 4.762623561351934], [-74.0728833966086, 4.761095042391116], [-74.06281943663163, 4.772080787112746], [-74.04370796940484, 4.768129189850909]]]}, "properties": {"id": 72, "nombre": "SAN JOSE DE BAVARIA", "uplcodigo": "UPZ17"}}, {"type": "Feature", "geometry": {"type": "Polygon", "coordinates": [[[-74.03261530817184, 4.712743860879948], [-74.032877141026, 4.703407517492663], [-74.05390430691871, 4.7067449061176045], [-74.05184888070026, 4.7189861923376615], [-74.03261530817184, 4.712743860879948]]]}, "properties": {"id": 73, "nombre": "COUNTRY CLUB", "uplcodigo": "UPZ15"}}, {"type": "Feature", "geometry": {"type": "Polygon", "coordinates": [[[-74.04667655736408, 4.751344231294887], [-74.04869197621304, 4.737778412907408], [-74.06419968099769, 4.741882226589887], [-74.0663341571645, 4.759451118420064], [-74.04667655736408, 4.751344231294887]]]}, "properties": {"id": 74, "nombre": "BRITALIA", "uplcodigo": "UPZ18"}}, {"type": "Feature", "geometry": {"type": "Polygon", "coordinates": [[[-74.12213209116275, 4.701613512051285], [-74.12468082811776, 4.694935657857611], [-74.15678344801421, 4.717449967031407], [-74.16034420091717, 4.7202340894869845], [-74.15976935908539, 4.723841750933155], [-74.15708159077215, 4.725567811299189], [-74.15110334837043, 4.722731691755296], [-74.14410910778909, 4.7282381389234045], [-74.13947675458368, 4.725483293221598], [-74.13010274386404, 4.716671633113085], [-74.13141354576369, 4.714125731261128], [-74.1263054905979, 4.709988027061849], [-74.12883677328698, 4.705071791977301], [-74.12213209116275, 4.701613512051285]]]}, "properties": {"id": 75, "nombre": "ENGATIVA", "uplcodigo": "UPZ74"}}, {"type": "Feature", "geometry": {"type": "Polygon", "coordinates": [[[-74.1540126466226, 4.663952524441218], [-74.14480488172272, 4.661227501296904], [-74.14127327016757, 4.66299501686617], [-74.13711210129499, 4.658072508966359], [-74.14699281573377, 4.649109932928826], [-74.15449603367027, 4.656224703892202], [-74.16459622988917, 4.6498463577744], [-74.17124385282318, 4.657048126890464], [-74.16347621757943, 4.658759353530213], [-74.16254390106182, 4.662991243895188], [-74.15707962436, 4.661530150851117], [-74.1540126466226, 4.663952524441218]]]}, "properties": {"id": 76, "nombre": "TINTAL NORTE", "uplcodigo": "UPZ78"}}, {"type": "Feature", "geometry": {"type": "MultiPolygon", "coordinates": [[[[-74.09418265231938, 4.51033457738932], [-74.09192847294602, 4.49999886156556], [-74.08186010673258, 4.49382982597297], [-74.09255349197463, 4.493163218508202], [-74.09658008064122, 4.481958310344795], [-74.09297229733986, 4.476279874368605], [-74.10363417776657, 4.477609981417041], [-74.11702589461127, 4.463002579758672], [-74.1250362564414, 4.457859950534939], [-74.12904149574696, 4.45860175848817], [-74.13307151687626, 4.471861352814449], [-74.12452823579204, 4.479113429346196], [-74.1204938452572, 4.4905817718770695], [-74.1201838106015, 4.4873426499809135], [-74.10984988532208, 4.490637639447888], [-74.10667850717901, 4.487314084251164], [-74.09613971930241, 4.485629302454445], [-74.09952907903909, 4.49510740290217], [-74.09484560540581, 4.501484827120624], [-74.09899687304731, 4.5038513795546935], [-74.09819295363158, 4.508893447870794], [-74.09418265231938, 4.51033457738932]]], [[[-74.07934002962837, 4.475048330288471], [-74.08133181739545, 4.471294735775881], [-74.08339321112233, 4.473083203133157], [-74.07934002962837, 4.475048330288471]]]]}, "properties": {"id": 77, "nombre": "CIUDAD USME", "uplcodigo": "UPZ61"}}, {"type": "Feature", "geometry": {"type": "Polygon", "coordinates": [[[-74.15546957926617, 4.717982199846666], [-74.12037818177447, 4.692221161418683], [-74.11840027387684, 4.688651400129743], [-74.12465090343902, 4.684803914816867], [-74.13308186726498, 4.69117850593421], [-74.13711550321497, 4.686165034430906], [-74.13599798103522, 4.683216733327091], [-74.16527759484565, 4.705405880282283], [-74.15541540276969, 4.7086980591526855], [-74.15546957926617, 4.717982199846666]]]}, "properties": {"id": 78, "nombre": "AEROPUERTO EL DORADO", "uplcodigo": "UPZ117"}}, {"type": "Feature", "geometry": {"type": "Polygon", "coordinates": [[[-74.15687512917377, 4.683252460915987], [-74.15112153566166, 4.667986731947652], [-74.14032166502416, 4.663657564224689], [-74.14078734627756, 4.662656239088091], [-74.15456481138337, 4.6642663627849785], [-74.15707962436, 4.661530151746481], [-74.16068314066375, 4.667118622086173], [-74.17017197224638, 4.66926062410926], [-74.1568646458344, 4.678404591393535], [-74.1600647242525, 4.682956113918567], [-74.16224822238269, 4.68101079895942], [-74.16023414561677, 4.6783101053413025], [-74.16455102576575, 4.675673870135909], [-74.16588111629119, 4.678177869791962], [-74.16950695303481, 4.675356672260407], [-74.17100101843894, 4.677176728335286], [-74.17151123007929, 4.674335612002637], [-74.17485492306017, 4.676572782897364], [-74.1736868652558, 4.682614698335377], [-74.1676381383419, 4.688018726940092], [-74.17239531155774, 4.695996916533951], [-74.15687512917377, 4.683252460915987]]]}, "properties": {"id": 79, "nombre": "ZONA FRANCA", "uplcodigo": "UPZ77"}}, {"type": "Feature", "geometry": {"type": "Polygon", "coordinates": [[[-74.04318835599672, 4.77106712308949], [-74.03507574612432, 4.820691066987068], [-74.02570464325127, 4.823118357049466], [-74.02636025261023, 4.81909156975377], [-74.03091261443286, 4.818910275302096], [-74.03103851421824, 4.812453621973211], [-74.02384883167213, 4.813409269208748], [-74.0228431308806, 4.808488324980824], [-74.03240253501025, 4.809036478345498], [-74.0344080732894, 4.796732856815524], [-74.02829537734415, 4.790615972801452], [-74.02714431297001, 4.7698488022823735], [-74.04318835599672, 4.77106712308949]]]}, "properties": {"id": 80, "nombre": "PASEO DE LOS LIBERTADORES", "uplcodigo": "UPZ1"}}, {"type": "Feature", "geometry": {"type": "Polygon", "coordinates": [[[-74.0786804820552, 4.734089503071262], [-74.05724328284603, 4.72545770932553], [-74.06826340242488, 4.70146438853135], [-74.0811982082683, 4.703716811545072], [-74.08480715309132, 4.707966346320426], [-74.08075762594395, 4.710728542853926], [-74.08920865633671, 4.71446979843921], [-74.08244957223889, 4.721734378001064], [-74.08402565382845, 4.733264126246943], [-74.0786804820552, 4.734089503071262]]]}, "properties": {"id": 81, "nombre": "NIZA", "uplcodigo": "UPZ24"}}, {"type": "Feature", "geometry": {"type": "Polygon", "coordinates": [[[-74.12270661768586, 4.697705260939716], [-74.12213209116275, 4.701613512051285], [-74.12883677328698, 4.705071791977301], [-74.1263054905979, 4.709988027957113], [-74.13141354576369, 4.714125731261128], [-74.1302803982879, 4.716931099336022], [-74.14410910778909, 4.7282381389234045], [-74.12954134711713, 4.730330494759221], [-74.11008966723098, 4.707907288885467], [-74.11758531506457, 4.694727509273831], [-74.12270661768586, 4.697705260939716]]]}, "properties": {"id": 82, "nombre": "GARCES NAVAS", "uplcodigo": "UPZ73"}}, {"type": "Feature", "geometry": {"type": "Polygon", "coordinates": [[[-74.08900489597238, 4.591819546516444], [-74.10249417165357, 4.5812600599587805], [-74.10888233957395, 4.589228359556353], [-74.11686324564593, 4.588447181434369], [-74.13075446711112, 4.593353367015981], [-74.10707300503098, 4.598243987717903], [-74.10320445607398, 4.5946612712461725], [-74.08900489597238, 4.591819546516444]]]}, "properties": {"id": 83, "nombre": "RESTREPO", "uplcodigo": "UPZ38"}}, {"type": "Feature", "geometry": {"type": "Polygon", "coordinates": [[[-74.12608586329073, 4.544822986433213], [-74.1088056818392, 4.5393638272140056], [-74.10357808785855, 4.531431546984966], [-74.1105040933092, 4.531269211198329], [-74.10922988428266, 4.528955236765471], [-74.11344917684906, 4.526488619165119], [-74.11990517026835, 4.526987674281479], [-74.12608586329073, 4.544822986433213]]]}, "properties": {"id": 84, "nombre": "DANUBIO", "uplcodigo": "UPZ56"}}, {"type": "Feature", "geometry": {"type": "Polygon", "coordinates": [[[-74.1755970877917, 4.571698947828363], [-74.18379851589287, 4.596403472835487], [-74.16068091823175, 4.596193635937479], [-74.16112343462892, 4.588146167952886], [-74.15737914243866, 4.580453321566958], [-74.16922897116676, 4.570962126778809], [-74.1755970877917, 4.571698947828363]]]}, "properties": {"id": 85, "nombre": "ISMAEL PERDOMO", "uplcodigo": "UPZ69"}}, {"type": "Feature", "geometry": {"type": "Polygon", "coordinates": [[[-74.17851733381227, 4.570167833514084], [-74.16922897116676, 4.570962126778809], [-74.15737914243866, 4.580453321566958], [-74.15118637695718, 4.568837385130156], [-74.15106442616579, 4.566195737015975], [-74.1565584892058, 4.564789883046745], [-74.15148830880902, 4.559881096437881], [-74.15903341428888, 4.555536967206443], [-74.16091988177543, 4.563088059906476], [-74.16618472709428, 4.557777007446247], [-74.16470613606924, 4.554953922569652], [-74.17417326165963, 4.55243811284085], [-74.1770634509491, 4.553866804212373], [-74.17851733381227, 4.570167833514084]]]}, "properties": {"id": 86, "nombre": "JERUSALEM", "uplcodigo": "UPZ70"}}, {"type": "Feature", "geometry": {"type": "Polygon", "coordinates": [[[-74.10275812273518, 4.762431482502204], [-74.10612852801935, 4.747788474780336], [-74.10343811686255, 4.723311537853204], [-74.12069026099574, 4.73943680375775], [-74.12880234804865, 4.73734980575725], [-74.1319862082826, 4.740284057420367], [-74.13006692713536, 4.7459184605411044], [-74.12557183470874, 4.747063620440144], [-74.12725408279186, 4.750637582492208], [-74.1226805243218, 4.747264907471655], [-74.12542009308758, 4.753462475113313], [-74.12024439118763, 4.754402700298823], [-74.12012763804846, 4.761151055133779], [-74.11624639769315, 4.763792490902858], [-74.11029038859469, 4.759659924345355], [-74.10561728511307, 4.765985099044782], [-74.10572845162947, 4.762691011218178], [-74.10275812273518, 4.762431482502204]]]}, "properties": {"id": 87, "nombre": "TIBABUYES", "uplcodigo": "UPZ71"}}, {"type": "Feature", "geometry": {"type": "Polygon", "coordinates": [[[-74.06353134969767, 4.6540973862144055], [-74.05724703061738, 4.686836296329634], [-74.03814903991648, 4.67991774439272], [-74.04439776505026, 4.680636816974374], [-74.05620592093231, 4.6609482442799965], [-74.05292739623376, 4.658821393935801], [-74.05746103267427, 4.6513843262446395], [-74.06353134969767, 4.6540973862144055]]]}, "properties": {"id": 88, "nombre": "CHICO LAGO", "uplcodigo": "UPZ97"}}, {"type": "Feature", "geometry": {"type": "Polygon", "coordinates": [[[-74.05814608970655, 4.6507052605121], [-74.06422472243456, 4.631449618111199], [-74.05870482923686, 4.623971222596927], [-74.06840721012546, 4.62880397418151], [-74.06353134969767, 4.6540973862144055], [-74.05814608970655, 4.6507052605121]]]}, "properties": {"id": 89, "nombre": "CHAPINERO", "uplcodigo": "UPZ99"}}, {"type": "Feature", "geometry": {"type": "Polygon", "coordinates": [[[-74.12694068214878, 4.7286179924021745], [-74.126536138437, 4.739835425233779], [-74.12069026099574, 4.739436802862528], [-74.10409179394534, 4.725823771037351], [-74.11008966723098, 4.707907288885467], [-74.12694068214878, 4.7286179924021745]]]}, "properties": {"id": 90, "nombre": "BOLIVIA", "uplcodigo": "UPZ72"}}, {"type": "Feature", "geometry": {"type": "Polygon", "coordinates": [[[-74.0728291177042, 4.615417332306098], [-74.08478262998239, 4.596962752252567], [-74.09788385591872, 4.6065481328566], [-74.08319894684888, 4.624698289060751], [-74.07882820730872, 4.623891494248744], [-74.0728291177042, 4.615417332306098]]]}, "properties": {"id": 91, "nombre": "LA SABANA", "uplcodigo": "UPZ102"}}, {"type": "Feature", "geometry": {"type": "Polygon", "coordinates": [[[-74.17064461005333, 4.628272566346391], [-74.16787292112625, 4.630272115455876], [-74.15630051102251, 4.640317197705317], [-74.15506438697075, 4.631043796838015], [-74.16196605526373, 4.623258716257962], [-74.16600203581665, 4.621042433091161], [-74.17064461005333, 4.628272566346391]]]}, "properties": {"id": 92, "nombre": "CORABASTOS", "uplcodigo": "UPZ80"}}, {"type": "Feature", "geometry": {"type": "Polygon", "coordinates": [[[-74.17064461095165, 4.628272566346391], [-74.16600203581665, 4.621042433091161], [-74.17836082483188, 4.611206173037218], [-74.18190361232749, 4.614261238974416], [-74.17985954530582, 4.616906986449891], [-74.1850981193942, 4.615721613217153], [-74.18523458336732, 4.618855054499874], [-74.18010445479837, 4.618485777069677], [-74.17705747086427, 4.625847683980765], [-74.17064461095165, 4.628272566346391]]]}, "properties": {"id": 93, "nombre": "GRAN BRITALIA", "uplcodigo": "UPZ81"}}, {"type": "Feature", "geometry": {"type": "Polygon", "coordinates": [[[-74.15630665100747, 4.640578097063985], [-74.17064461095165, 4.628272566346391], [-74.18214447490969, 4.6496565927429545], [-74.17751393989441, 4.654241538973115], [-74.16689178566452, 4.639892880467534], [-74.16033866460008, 4.6455549988658476], [-74.15630665100747, 4.640578097063985]]]}, "properties": {"id": 94, "nombre": "PATIO BONITO", "uplcodigo": "UPZ82"}}, {"type": "Feature", "geometry": {"type": "Polygon", "coordinates": [[[-74.08916196909476, 4.69543717401796], [-74.09941660008403, 4.681051617444154], [-74.11759206859887, 4.6947195840661164], [-74.11008966723098, 4.707907288885467], [-74.08916196909476, 4.69543717401796]]]}, "properties": {"id": 95, "nombre": "BOYACA REAL", "uplcodigo": "UPZ30"}}, {"type": "Feature", "geometry": {"type": "Polygon", "coordinates": [[[-74.20788172163606, 4.623637172550392], [-74.17994930586732, 4.634606753142201], [-74.1765606656812, 4.624020033071091], [-74.18010445479837, 4.618485777069677], [-74.18523458336732, 4.618855054499874], [-74.18830593679846, 4.612758282504505], [-74.19216942105386, 4.614515904288476], [-74.19159399262222, 4.618313501499123], [-74.20188447806942, 4.619341179308345], [-74.20465063786592, 4.616772788301717], [-74.20445313067431, 4.622346549903263], [-74.20665049160594, 4.620822674426752], [-74.20788172163606, 4.623637172550392]]]}, "properties": {"id": 96, "nombre": "BOSA OCCIDENTAL", "uplcodigo": "UPZ84"}}, {"type": "Feature", "geometry": {"type": "Polygon", "coordinates": [[[-74.2171238560787, 4.616079055774516], [-74.21216223708402, 4.617617464824773], [-74.21178669368454, 4.615065118567343], [-74.20727333491493, 4.616696018443273], [-74.20556712427161, 4.613931080257623], [-74.20253538923946, 4.6188917040321975], [-74.19855081657533, 4.617352294002032], [-74.1978337310099, 4.619795609425235], [-74.19666894486977, 4.617453681014245], [-74.19125215311388, 4.618209211727017], [-74.19216942105386, 4.614515904288476], [-74.18830593679846, 4.612758282504505], [-74.17985954530582, 4.616906986449891], [-74.18190361232749, 4.614261238974416], [-74.17729227880142, 4.609619429318134], [-74.17743246808804, 4.596918401825209], [-74.20426657664093, 4.599441433523287], [-74.2171238560787, 4.616079055774516]]]}, "properties": {"id": 97, "nombre": "BOSA CENTRAL", "uplcodigo": "UPZ85"}}, {"type": "Feature", "geometry": {"type": "Polygon", "coordinates": [[[-74.18557691335577, 4.646833095989664], [-74.17994930586732, 4.634606753142201], [-74.19549911019777, 4.628406124802054], [-74.20493356765455, 4.645946923814698], [-74.20088630066843, 4.643836707933175], [-74.20292461308239, 4.646494591574835], [-74.19295465730833, 4.655181719085235], [-74.1867917212842, 4.651466328381366], [-74.1837095683067, 4.652734745843146], [-74.18557691335577, 4.646833095989664]]]}, "properties": {"id": 98, "nombre": "EL PORVENIR", "uplcodigo": "UPZ86"}}, {"type": "Feature", "geometry": {"type": "Polygon", "coordinates": [[[-74.0621639997492, 4.617463689792189], [-74.06352681590042, 4.606369479044853], [-74.06109512403702, 4.6029649200227], [-74.05928714235685, 4.602009306040407], [-74.05908877727414, 4.601324360185962], [-74.059761795085, 4.600612500006066], [-74.06346110144246, 4.598997895747141], [-74.06431341220424, 4.599464530048393], [-74.06452311222922, 4.5973965983205165], [-74.0651519616742, 4.597090732724272], [-74.0644169349559, 4.599647052026448], [-74.05925924337907, 4.601396248979904], [-74.06822531295853, 4.603111684385693], [-74.06523574394748, 4.620058474584038], [-74.0621639997492, 4.617463689792189]]]}, "properties": {"id": 99, "nombre": "LA MACARENA", "uplcodigo": "UPZ92"}}, {"type": "Feature", "geometry": {"type": "MultiPolygon", "coordinates": [[[[-74.04553961720116, 4.7577725338738635], [-74.04318835599672, 4.77106712308949], [-74.02271891004649, 4.768952234102229], [-74.0226913398521, 4.7554055101390835], [-74.04043507714309, 4.757137081413017], [-74.0406122419851, 4.76026446712171], [-74.04553961720116, 4.7577725338738635]]], [[[-74.02248861794027, 4.764498568486082], [-74.02003738232953, 4.7648432802032765], [-74.02002100783854, 4.7647009085610685], [-74.02248861794027, 4.764498568486082]]]]}, "properties": {"id": 100, "nombre": "VERBENAL", "uplcodigo": "UPZ9"}}, {"type": "Feature", "geometry": {"type": "Polygon", "coordinates": [[[-74.06840721012546, 4.62880397418151], [-74.05516108323886, 4.622716726983297], [-74.06087660704753, 4.617559002397733], [-74.06523574394748, 4.620058474584038], [-74.06783906613245, 4.609687424033181], [-74.0728291177042, 4.615417332306098], [-74.06840721012546, 4.62880397418151]]]}, "properties": {"id": 101, "nombre": "SAGRADO CORAZON", "uplcodigo": "UPZ91"}}, {"type": "Feature", "geometry": {"type": "Polygon", "coordinates": [[[-74.0728291177042, 4.615417332306098], [-74.06586377233228, 4.607172942246293], [-74.06809095104316, 4.601426232116165], [-74.07659083631263, 4.602163421990353], [-74.08113902456243, 4.595067069436598], [-74.08469894113388, 4.597063801910685], [-74.0728291177042, 4.615417332306098]]]}, "properties": {"id": 102, "nombre": "LAS NIEVES", "uplcodigo": "UPZ93"}}, {"type": "Feature", "geometry": {"type": "Polygon", "coordinates": [[[-74.08900489597238, 4.591819546516444], [-74.08469894113388, 4.597063802806107], [-74.08113902456243, 4.595067069436598], [-74.07643172760784, 4.5901973389102615], [-74.07807177733048, 4.582927944720025], [-74.08900489597238, 4.591819546516444]]]}, "properties": {"id": 103, "nombre": "LAS CRUCES", "uplcodigo": "UPZ95"}}, {"type": "Feature", "geometry": {"type": "Polygon", "coordinates": [[[-74.06529299986875, 4.597097940002948], [-74.063352840976, 4.586629090811938], [-74.06590894321803, 4.586749775315043], [-74.06999776896414, 4.5769686043907765], [-74.07401469624986, 4.576272264960679], [-74.07889726170293, 4.582472669948189], [-74.07754328856736, 4.587915840134973], [-74.06832146503326, 4.589936040471856], [-74.06529299986875, 4.597097940002948]]]}, "properties": {"id": 104, "nombre": "LOURDES", "uplcodigo": "UPZ96"}}, {"type": "Feature", "geometry": {"type": "Polygon", "coordinates": [[[-74.1565584892058, 4.564789883046745], [-74.15106442616579, 4.566195737015975], [-74.15397301205397, 4.574492431190162], [-74.13869713818963, 4.563665030256924], [-74.14268092213295, 4.556499825884962], [-74.14915822898067, 4.559691679026994], [-74.1521029585843, 4.5567420655723305], [-74.15148830880902, 4.559881096437881], [-74.1565584892058, 4.564789883046745]]]}, "properties": {"id": 105, "nombre": "SAN FRANCISCO", "uplcodigo": "UPZ66"}}, {"type": "Feature", "geometry": {"type": "Polygon", "coordinates": [[[-74.13387728322823, 4.560712537164118], [-74.13779279520995, 4.545696141242139], [-74.15131623741466, 4.537669452720151], [-74.1646892603183, 4.541887984727558], [-74.15844644430246, 4.547566407311163], [-74.16606390997677, 4.549999204774677], [-74.15607759857633, 4.5589723422959585], [-74.14268092213295, 4.556499825884962], [-74.13834723899657, 4.563633032526422], [-74.13387728322823, 4.560712537164118]]]}, "properties": {"id": 106, "nombre": "LUCERO", "uplcodigo": "UPZ67"}}, {"type": "Feature", "geometry": {"type": "MultiPolygon", "coordinates": [[[[-74.1349347260818, 4.532982244231781], [-74.13969838243901, 4.536142003797006], [-74.14502676469958, 4.531358997459156], [-74.1497852602355, 4.531665813442055], [-74.15158688543671, 4.5386575122142805], [-74.1370529220807, 4.547717013924187], [-74.13056043729794, 4.537754475024086], [-74.1349347260818, 4.532982244231781]]], [[[-74.15106382519288, 4.53428741345514], [-74.15458042589962, 4.53395358928491], [-74.1514625469233, 4.535316149508813], [-74.15106382519288, 4.53428741345514]]], [[[-74.15028580869833, 4.531668286832362], [-74.15137825171199, 4.531618010381925], [-74.15147754519528, 4.532095689802341], [-74.15028580869833, 4.531668286832362]]]]}, "properties": {"id": 107, "nombre": "EL TESORO", "uplcodigo": "UPZ68"}}, {"type": "Feature", "geometry": {"type": "Polygon", "coordinates": [[[-74.10343100759539, 4.723308924575883], [-74.08798857799253, 4.705654110377295], [-74.08836863003643, 4.6985303559250555], [-74.08543126931306, 4.69653087756966], [-74.08916196909476, 4.69543717401796], [-74.11008966723098, 4.707907288885467], [-74.10343100759539, 4.723308924575883]]]}, "properties": {"id": 108, "nombre": "MINUTO DE DIOS", "uplcodigo": "UPZ29"}}, {"type": "Feature", "geometry": {"type": "Polygon", "coordinates": [[[-74.0717065146532, 4.689170451840623], [-74.05724703061738, 4.686836296329634], [-74.05858994100024, 4.678923999885268], [-74.06739283070999, 4.6739297841132235], [-74.0790227662296, 4.684006142953092], [-74.0717065146532, 4.689170451840623]]]}, "properties": {"id": 109, "nombre": "LOS ANDES", "uplcodigo": "UPZ21"}}, {"type": "Feature", "geometry": {"type": "Polygon", "coordinates": [[[-74.04708484884723, 4.649028414012], [-74.04839692725292, 4.642325646718878], [-74.0526752687779, 4.642062503317281], [-74.05216801888304, 4.638169958306472], [-74.05731176860665, 4.638773989551659], [-74.05306885124659, 4.636533310338564], [-74.05679505316364, 4.637552109128734], [-74.05603888818841, 4.631799241424296], [-74.0586333673577, 4.6326420277872], [-74.06057216260785, 4.628776364077704], [-74.05481471981474, 4.626954770862544], [-74.05785567066341, 4.625708308593694], [-74.05533364960493, 4.622748883233775], [-74.06422472243456, 4.631449618111199], [-74.06140371689669, 4.645036474500597], [-74.053344457969, 4.653054640000323], [-74.04708484884723, 4.649028414012]]]}, "properties": {"id": 110, "nombre": "PARDO RUBIO", "uplcodigo": "UPZ90"}}, {"type": "Feature", "geometry": {"type": "Polygon", "coordinates": [[[-74.05858994100024, 4.678923999885268], [-74.06463473958138, 4.649647361592352], [-74.0783193494295, 4.651994479359278], [-74.07525943155194, 4.665557068101527], [-74.05858994100024, 4.678923999885268]]]}, "properties": {"id": 111, "nombre": "LOS ALCAZARES", "uplcodigo": "UPZ98"}}, {"type": "Feature", "geometry": {"type": "Polygon", "coordinates": [[[-74.20445313067431, 4.622346549903263], [-74.20570626342767, 4.613931070408179], [-74.20702856825453, 4.616646953171042], [-74.21771832609944, 4.615803510251713], [-74.22174024083162, 4.618921606739789], [-74.22242989364491, 4.629116991883789], [-74.21629380916292, 4.629705623988557], [-74.21750941659192, 4.635073542203749], [-74.21469590480017, 4.637268897706862], [-74.2212948875548, 4.644058761431408], [-74.20817059378028, 4.64049037851053], [-74.20493356765455, 4.645946923814698], [-74.19574891910187, 4.628871641136831], [-74.20788172163606, 4.623637172550392], [-74.20665049160594, 4.620822674426752], [-74.20445313067431, 4.622346549903263]]]}, "properties": {"id": 112, "nombre": "TINTAL SUR", "uplcodigo": "UPZ87"}}, {"type": "Feature", "geometry": {"type": "MultiPolygon", "coordinates": [[[[-74.07562351514333, 4.836779076271671], [-74.07171492917246, 4.834160014534591], [-74.07057067492649, 4.828345479407022], [-74.06696803088687, 4.8280640423211985], [-74.06579864088093, 4.835462646203976], [-74.06449076928573, 4.830213608756351], [-74.0627889837435, 4.835505674528208], [-74.06065836494253, 4.8274377237677415], [-74.05329631186305, 4.833085192327478], [-74.04901241605468, 4.830641567885147], [-74.04996340764873, 4.8351674003956004], [-74.0465862802713, 4.830107721726119], [-74.044145724731, 4.833000559506833], [-74.0436756120883, 4.828437228176099], [-74.05274655368895, 4.828217368751602], [-74.05391225431403, 4.818312038716078], [-74.05755680296502, 4.821939290413678], [-74.05853376395564, 4.815189812129561], [-74.04151586092264, 4.807697115244567], [-74.04250797559381, 4.80169268942261], [-74.04807746388, 4.802782907014704], [-74.04909835787791, 4.797928397899494], [-74.0535784196932, 4.7995033143651264], [-74.0632712685583, 4.771141017584954], [-74.07500399829586, 4.759329420719323], [-74.09170421931512, 4.758162359964679], [-74.10132206065063, 4.761965270183718], [-74.10037210661073, 4.7680277701153955], [-74.10238461312153, 4.762392990990698], [-74.10572848756209, 4.762690982571329], [-74.10561749262389, 4.76598524317348], [-74.11029036793344, 4.75965991718362], [-74.1168264156176, 4.761786544172741], [-74.1157019431725, 4.767989240423457], [-74.1182996320223, 4.766779561867584], [-74.11388364703623, 4.7781184527950336], [-74.11718564740814, 4.77750345017179], [-74.11434504691898, 4.780061031375318], [-74.11719827682272, 4.780696970198757], [-74.11475149595749, 4.785638785424925], [-74.11225143331781, 4.784474622360239], [-74.11294970366963, 4.79022944687267], [-74.11004096327123, 4.7903390219697055], [-74.11162288930002, 4.787205048743033], [-74.10804875239765, 4.788846901902394], [-74.10524844314561, 4.796873998105187], [-74.10275875425083, 4.795245371582107], [-74.10070958390004, 4.799114089169235], [-74.09606896170244, 4.799238807255625], [-74.09387343333397, 4.790798255892608], [-74.0875398272873, 4.795627895051849], [-74.09157127583961, 4.796685691251775], [-74.08859674642304, 4.798171238891138], [-74.08877261230116, 4.802900939368305], [-74.07975030818493, 4.809376067045381], [-74.08692476159206, 4.815495364369709], [-74.086565058186, 4.821029003711106], [-74.08342390835222, 4.822142221276296], [-74.08202274671477, 4.816377405078069], [-74.07895219098761, 4.821114011297232], [-74.08671379584085, 4.831836101443805], [-74.07562351514333, 4.836779076271671]], [[-74.06784909761922, 4.791187810776474], [-74.07024613966549, 4.786812302952094], [-74.06840050689681, 4.785761516872972], [-74.06571293800955, 4.790211824406751], [-74.06784909761922, 4.791187810776474]], [[-74.05984013716092, 4.794751108106234], [-74.05818540896655, 4.79197118986431], [-74.05813469457718, 4.794721989962234], [-74.05984013716092, 4.794751108106234]], [[-74.06233974704969, 4.804524122061189], [-74.06433857491366, 4.802339560425682], [-74.06319153229704, 4.801953337431677], [-74.06233974704969, 4.804524122061189]], [[-74.07603243544719, 4.806139247164146], [-74.07572180610678, 4.803180504344625], [-74.07486731962538, 4.805746420957642], [-74.07603243544719, 4.806139247164146]]], [[[-74.03146513762141, 4.796399193212312], [-74.03438969825027, 4.796730104170678], [-74.03240253770521, 4.809036457756962], [-74.02987061361904, 4.807436943863945], [-74.03146513762141, 4.796399193212312]]], [[[-74.03501298802193, 4.825525112182166], [-74.03132298192264, 4.820687011118778], [-74.03553219808649, 4.820687660988648], [-74.03501298802193, 4.825525112182166]]]]}, "properties": {"id": 113, "nombre": "UPR ZONA NORTE", "uplcodigo": "UPR1"}}, {"type": "Feature", "geometry": {"type": "Polygon", "coordinates": [[[-74.16182591538447, 4.562661114103117], [-74.15802489997391, 4.557000241956047], [-74.16606390907845, 4.549999206565653], [-74.15844644070918, 4.547566408206623], [-74.16205528492091, 4.546710307552795], [-74.16427257587544, 4.541365680317516], [-74.15117098971469, 4.537636051481821], [-74.14978525843888, 4.531665814337552], [-74.14507918858294, 4.531352854278586], [-74.13969837974406, 4.536142007379005], [-74.13485251496192, 4.533548624283144], [-74.13194767684512, 4.511385969498697], [-74.13658241058602, 4.514086924075459], [-74.13489302538798, 4.509636274177196], [-74.14782052882647, 4.499964226320115], [-74.14773971907846, 4.494267010960137], [-74.14133472840771, 4.493909236503045], [-74.14372144791307, 4.4889953175351245], [-74.1281385703088, 4.489580175929993], [-74.1282204840863, 4.477098323947513], [-74.1331217057512, 4.471189395707379], [-74.12910861966164, 4.458650984067316], [-74.12503625194982, 4.457859953221747], [-74.11699021622313, 4.46303005292003], [-74.10363685115286, 4.477595362969792], [-74.09297229374661, 4.47627987526416], [-74.09652808076268, 4.481882110022689], [-74.09255348568641, 4.493163221194869], [-74.0819191880305, 4.493357592313655], [-74.0856659281299, 4.499938419367047], [-74.08037953402402, 4.493480402343285], [-74.08713194633424, 4.48626176898733], [-74.08109606892218, 4.458606648446502], [-74.08481168509194, 4.456677705128373], [-74.09006660672186, 4.4591192672562485], [-74.10365018574493, 4.452027129921285], [-74.11307759861326, 4.430695525201637], [-74.11377476942717, 4.38650319682696], [-74.10505265982101, 4.378568380283899], [-74.09853668229694, 4.378165456958719], [-74.09466708859928, 4.362666122085196], [-74.09888889824511, 4.344969728002657], [-74.10528166643809, 4.336769968745809], [-74.10695677920289, 4.325035060850151], [-74.11104596607174, 4.323814048842382], [-74.11480481815612, 4.313349360406114], [-74.12439849840376, 4.306656291790813], [-74.13747835970769, 4.304246514864765], [-74.16049119314543, 4.283715764129025], [-74.18544659296089, 4.28193342482284], [-74.1949654929527, 4.290119653771461], [-74.20196090403884, 4.282826484699381], [-74.20584489503555, 4.269664087967218], [-74.2161930747819, 4.273064900931964], [-74.22113714339089, 4.282170230692994], [-74.2161199761723, 4.286849219945392], [-74.21432154358358, 4.303973149128908], [-74.22110145332468, 4.364555715573429], [-74.2121989584162, 4.374250929282139], [-74.21421279263697, 4.376370253091152], [-74.21050830210201, 4.385418965261312], [-74.21296025636498, 4.39616393376843], [-74.203421721896, 4.419375427273265], [-74.19884414885495, 4.426413619873876], [-74.19423917719773, 4.42676798080387], [-74.19474565723637, 4.4347749119489706], [-74.18621704114915, 4.452728654121645], [-74.18257686998854, 4.480007418036123], [-74.17803311672131, 4.486409741047786], [-74.18152821086183, 4.504104429940016], [-74.17339378360614, 4.507847616121774], [-74.17617497581061, 4.512512547948757], [-74.18222520830089, 4.512962118531665], [-74.18324538274825, 4.527466365106797], [-74.18807610462966, 4.532955238476242], [-74.17376334692075, 4.540058633495932], [-74.17637974588132, 4.545790506137035], [-74.17402217580862, 4.552491942900076], [-74.16470613876417, 4.554953926151563], [-74.16618473607743, 4.55777697610464], [-74.16182591538447, 4.562661114103117]], [[-74.14842930990798, 4.505999647512117], [-74.14319689287258, 4.506852130891265], [-74.1430789979747, 4.508729025811803], [-74.14915886588619, 4.510723566524486], [-74.14842930990798, 4.505999647512117]], [[-74.15146254422835, 4.535316152195337], [-74.15462806355916, 4.532932129063748], [-74.1510638215996, 4.53428741345514], [-74.15146254422835, 4.535316152195337]], [[-74.15137825171199, 4.531618012172933], [-74.14994366466112, 4.531264336055574], [-74.15147754339864, 4.53209569248888], [-74.15137825171199, 4.531618012172933]]]}, "properties": {"id": 114, "nombre": "UPR R\u00cdO TUNJUELO", "uplcodigo": "UPR3"}}, {"type": "Feature", "geometry": {"type": "Polygon", "coordinates": [[[-74.30012908664665, 4.106560548976513], [-74.28015696780064, 4.102057958745178], [-74.26106075756063, 4.090745117862359], [-74.25191727879741, 4.102076729342073], [-74.24627406128425, 4.102441387233042], [-74.24605211632363, 4.081725737107383], [-74.25404212502437, 4.055620530505631], [-74.24262755430594, 4.054136573422514], [-74.24133515169993, 4.04563745290578], [-74.23749050511603, 4.047394930978286], [-74.23256533975557, 4.042583962284338], [-74.235153707686, 4.024961021173868], [-74.21393335729482, 4.012877378215079], [-74.2290421678725, 3.9945968537733707], [-74.23320093195505, 3.978201075091885], [-74.24420619968733, 3.9554109213103668], [-74.25117828691545, 3.9497181447773135], [-74.26004101430459, 3.948683893117925], [-74.25300859442537, 3.9454761475725286], [-74.25770197467959, 3.942666849833046], [-74.25647771737273, 3.928669098750169], [-74.26484254273589, 3.9294419025746055], [-74.27332417962867, 3.9252964240210813], [-74.27607204433612, 3.9105529594810364], [-74.29786954433102, 3.881080658177152], [-74.30967039960478, 3.888501731228114], [-74.31628213574152, 3.8803207410078637], [-74.31330318122387, 3.8639832754152477], [-74.30505688227426, 3.85124353192474], [-74.30812138784798, 3.841684922968099], [-74.29970942967851, 3.8391078185189165], [-74.29501096226481, 3.830565818745478], [-74.29668578128054, 3.820368678518352], [-74.31831219084138, 3.815341842835105], [-74.31995284692685, 3.825428979102152], [-74.32828428819909, 3.8280005174568363], [-74.33979957084064, 3.8117512693961797], [-74.34390355206392, 3.8138550599712024], [-74.35521125380626, 3.808285038929764], [-74.35392198003241, 3.800679872963067], [-74.36465185124803, 3.7882918777937453], [-74.37309468990371, 3.7872577804447123], [-74.37659069673256, 3.7755653398652473], [-74.38078037274236, 3.7772066339558874], [-74.39280867336123, 3.77079230353605], [-74.38644118915028, 3.7616996632738635], [-74.38582552877028, 3.754432025833787], [-74.38917492874816, 3.7513040585604047], [-74.39365297474394, 3.754565381373344], [-74.39780043442698, 3.7527981055334365], [-74.39708141568704, 3.7455216505637217], [-74.40075043983627, 3.7382653857591754], [-74.42334827407063, 3.7426585204640834], [-74.43729321838306, 3.7310303587472986], [-74.4462846195552, 3.7381603953382503], [-74.4496372130439, 3.7504524754369433], [-74.43299218721064, 3.765236880561457], [-74.43010166913778, 3.785613117161366], [-74.42377562510919, 3.7866138192148857], [-74.39616672591193, 3.8247362537398475], [-74.38604047495653, 3.86866307538909], [-74.37335371462429, 3.8797721891563133], [-74.35982196569816, 3.914039566503491], [-74.35488301479133, 3.9409892355633303], [-74.35674877970385, 3.9703313700093026], [-74.36359268901903, 3.980493414022867], [-74.374511635839, 3.9867806832444583], [-74.36289512564133, 4.009454167687892], [-74.36659889123585, 4.036231861351141], [-74.36428779730103, 4.043365789204474], [-74.35111941241574, 4.0576840006935395], [-74.35092900281319, 4.075200276453056], [-74.34302750691401, 4.10135490822448], [-74.33084547400732, 4.119640991250073], [-74.33004988736414, 4.1308833169129455], [-74.31917500290884, 4.1257174118481545], [-74.30012908664665, 4.106560548976513]]]}, "properties": {"id": 115, "nombre": "UPR R\u00cdO SUMAPAZ", "uplcodigo": "UPR5"}}, {"type": "Feature", "geometry": {"type": "Polygon", "coordinates": [[[-74.12608003502116, 4.305761087538518], [-74.15263344789555, 4.254702293757655], [-74.14550476724543, 4.245008496534936], [-74.14268440130805, 4.233725292359023], [-74.13608863542044, 4.228660189087379], [-74.13894924767916, 4.214823081338664], [-74.1310321642132, 4.1977443285018765], [-74.12447107239724, 4.1953953048369845], [-74.1235459720463, 4.182276030479888], [-74.11052964319252, 4.181314010908088], [-74.10918937475493, 4.169523513521056], [-74.1148232012801, 4.156627164901732], [-74.11441087636132, 4.142715235712056], [-74.11783901906375, 4.136323286973458], [-74.099428546779, 4.123554961279762], [-74.08968209723753, 4.122568918495188], [-74.10083915959157, 4.106447081980326], [-74.11822549226527, 4.100311865697027], [-74.12974041019083, 4.091843897581319], [-74.13259841643693, 4.079299284767058], [-74.12605979777445, 4.069229542952326], [-74.12473861673999, 4.0570977939527415], [-74.13280886026696, 4.035309783485695], [-74.14681959359754, 4.018317267379863], [-74.15027229893478, 4.004779348382302], [-74.15890630537112, 4.01772289375831], [-74.17552367656837, 4.015975189921246], [-74.18288549608587, 4.008260223067457], [-74.19484929856564, 4.01578461518208], [-74.20973689900462, 4.011495007257023], [-74.235153707686, 4.024961021173868], [-74.23297109529467, 4.043752820119865], [-74.23797373316187, 4.047522106397292], [-74.24133515169993, 4.04563745290578], [-74.24262755430594, 4.054136573422514], [-74.25404212502437, 4.055620530505631], [-74.24592863210806, 4.083087550510237], [-74.24792594631076, 4.094081070151398], [-74.24287180263843, 4.133664704875911], [-74.245622348817, 4.140868537437209], [-74.24005247605183, 4.172722793045117], [-74.24021807957614, 4.186464847030491], [-74.24467185309295, 4.18932620792322], [-74.24450100879727, 4.194918464760485], [-74.24253240115779, 4.197928089434268], [-74.23740080114838, 4.196457962239957], [-74.23146477507343, 4.217282429963124], [-74.21956048867618, 4.226488589547568], [-74.21620746579275, 4.236970301001434], [-74.20629203056993, 4.24189371170368], [-74.20886547658516, 4.246589226481004], [-74.20501629800064, 4.252933279922669], [-74.20761439109233, 4.263597086765733], [-74.20418506980026, 4.278256110472219], [-74.19703652290764, 4.28840280523058], [-74.1949654929527, 4.290119653771461], [-74.18544659296089, 4.28193342482284], [-74.16269645116675, 4.283142368505201], [-74.13747835970769, 4.304246514864765], [-74.12608003502116, 4.305761087538518]]]}, "properties": {"id": 116, "nombre": "UPR R\u00cdO BLANCO", "uplcodigo": "UPR4"}}]}